"row_id","restaurant_code","chain_id","primary_cuisine","latitude","longitude","geom","restaurant_id","suburb","postcode"
19190,"615b5e7e",f9aa47f6,Japanese,-37.80092933,144.95515785,POINT (144.95515785 -37.80092933),983,NORTH MELBOURNE,"3051"
9352,"06e9e0cd","31300311",Japanese,-37.83857784,144.94635494,POINT (144.94635494 -37.83857784),982,PORT MELBOURNE,"3207"
17725,"32b66420",ec3b749b,Indian,-37.79467493,144.96772917,POINT (144.96772917 -37.79467493),977,CARLTON,"3053"
9962,"64a03960",b6620d07,Japanese,-37.77962313,144.94087653,POINT (144.94087653 -37.77962313),997,PARKVILLE,"3052"
22873,c873a50b,"9f52af27",Beverages,-37.85058184,144.99447093,POINT (144.99447093 -37.85058184),985,PRAHRAN,"3181"
11225,bf17ec7f,"10940d7c",Indian,-37.83090768,144.98641465,POINT (144.98641465 -37.83090768),998,SOUTH YARRA,"3141"
10731,cd476b20,"3d198088",Indian,-37.79702684,144.96833494,POINT (144.96833494 -37.79702684),978,CARLTON,"3053"
12053,b6bf62eb,d792f760,Desserts,-37.80191884,144.95007394,POINT (144.95007394 -37.80191884),993,NORTH MELBOURNE,"3051"
22840,"73590408",c9da7ce7,Japanese,-37.83798002,144.94392834,POINT (144.94392834 -37.83798002),984,PORT MELBOURNE,"3207"
9767,"21a23a50","",Indian,-37.84227884,144.99271893,POINT (144.99271893 -37.84227884),989,SOUTH YARRA,"3141"
9231,"1841d7bf","10940d7c",Indian,-37.85310184,145.00383693,POINT (145.00383693 -37.85310184),991,PRAHRAN,"3181"
9337,d9beaa54,"46b646d4",Healthy,-37.79176383,144.92641695,POINT (144.92641695 -37.79176383),996,KENSINGTON,"3031"
14977,"603370f8",f873c75f,Indian,-37.79423883,144.91754595,POINT (144.91754595 -37.79423883),976,KENSINGTON,"3031"
8447,ace99077,"9f52af27",Beverages,-37.78660883,144.93000095,POINT (144.93000095 -37.78660883),1000,FLEMINGTON,"3031"
11040,"5a5136dc",acdf9bdd,Indian,-37.80327684,144.94420994,POINT (144.94420994 -37.80327684),980,NORTH MELBOURNE,"3051"
2688,ae8b7b32,"",Indian,-37.80368562,144.96615397,POINT (144.96615397 -37.80368562),987,CARLTON,"3053"
9690,"63627821","",Indian,-37.79479016,144.93185537,POINT (144.93185537 -37.79479016),981,KENSINGTON,"3031"
22196,d9982a25,"",Snacks,-37.79626484,144.97222894,POINT (144.97222894 -37.79626484),999,CARLTON,"3053"
6431,"04007a9e","",Indian,-37.85719840,145.00637702,POINT (145.00637702 -37.8571984),994,PRAHRAN,"3181"
18149,"0d4dee30","",Desserts,-37.79110184,144.93079594,POINT (144.93079594 -37.79110184),992,KENSINGTON,"3031"
6428,a02c8065,dc466c39,Snacks,-37.79431468,144.91791963,POINT (144.91791963 -37.79431468),995,KENSINGTON,"3031"
4857,"4771d115","2d9662d2",Snacks,-37.83702984,144.99883793,POINT (144.99883793 -37.83702984),979,SOUTH YARRA,"3141"
20074,d495a877,"",Indian,-37.83784984,144.94840694,POINT (144.94840694 -37.83784984),986,SOUTH MELBOURNE,"3205"
21405,"65195118","",Desserts,-37.83335784,144.93438794,POINT (144.93438794 -37.83335784),988,PORT MELBOURNE,"3207"
6503,"2dbc896d","",Indian,-37.78472883,144.92099295,POINT (144.92099295 -37.78472883),990,FLEMINGTON,"3031"
8846,"619e7824",a696f702,Indian,-37.80199584,144.94537494,POINT (144.94537494 -37.80199584),566,NORTH MELBOURNE,"3051"
17981,"12da9e9a","",Snacks,-37.79640772,144.94696149,POINT (144.94696149 -37.79640772),270,NORTH MELBOURNE,"3051"
4160,"34dc0f99","",Snacks,-37.79575631,144.94648598,POINT (144.94648598 -37.79575631),557,NORTH MELBOURNE,"3051"
4183,"2d3d6b9c","4bfa0362",Western,-37.79562084,144.94703394,POINT (144.94703394 -37.79562084),894,NORTH MELBOURNE,"3051"
7730,b9e93fe2,"",Indian,-37.79487484,144.94663494,POINT (144.94663494 -37.79487484),83,NORTH MELBOURNE,"3051"
8445,"6119cfd1","3c91b1bb",Desserts,-37.79479484,144.94719394,POINT (144.94719394 -37.79479484),875,NORTH MELBOURNE,"3051"
18044,f4f89042,"",Indian,-37.80503505,144.94480632,POINT (144.94480632 -37.80503505),28,WEST MELBOURNE,"3003"
2302,"47e9bef2","0caffc2b",Japanese,-37.85279184,145.00466293,POINT (145.00466293 -37.85279184),486,PRAHRAN,"3181"
9861,fd732d39,"82aada8b",Korean,-37.85268184,145.00380993,POINT (145.00380993 -37.85268184),603,PRAHRAN,"3181"
15137,"7b10d324","10940d7c",Indian,-37.83613804,144.97719386,POINT (144.97719386 -37.83613804),835,SOUTH YARRA,"3141"
11425,afe8fa99,d4474d04,Snacks,-37.81106227,144.94692882,POINT (144.94692882 -37.81106227),572,WEST MELBOURNE,"3003"
10581,"72ddaa46",c06f2f01,Western,-37.81087997,144.94693086,POINT (144.94693086 -37.81087997),889,WEST MELBOURNE,"3003"
7341,"51509386",b5853588,Japanese,-37.81063446,144.94734808,POINT (144.94734808 -37.81063446),252,WEST MELBOURNE,"3003"
7147,"35c13d41","",Indian,-37.80929784,144.94679894,POINT (144.94679894 -37.80929784),410,WEST MELBOURNE,"3003"
21012,"1f3f71d0","",Beverages,-37.80811284,144.94501894,POINT (144.94501894 -37.80811284),450,WEST MELBOURNE,"3003"
13168,"09c3f90b","8dc94713",Beverages,-37.84529084,144.98597793,POINT (144.98597793 -37.84529084),934,SOUTH YARRA,"3141"
4348,dbfda1d4,"1fbb4869",Beverages,-37.81791638,144.97978118,POINT (144.97978118 -37.81791638),904,EAST MELBOURNE,"3002"
8439,a0e514a7,"0c3fe6a3",Indian,-37.81676559,144.97998353,POINT (144.97998353 -37.81676559),178,EAST MELBOURNE,"3002"
6749,b20fab5f,"8dc94713",Beverages,-37.85595384,145.00835092,POINT (145.00835092 -37.85595384),61,PRAHRAN,"3181"
19195,"6d9ea0d5","910ea3ca",Healthy,-37.83980484,144.96149093,POINT (144.96149093 -37.83980484),226,SOUTH MELBOURNE,"3205"
15845,aaa3f931,"",Beverages,-37.83948636,144.96196073,POINT (144.96196073 -37.83948636),956,SOUTH MELBOURNE,"3205"
13043,"24377b3a","",Western,-37.83795422,144.96435686,POINT (144.96435686 -37.83795422),419,SOUTH MELBOURNE,"3205"
6812,a5719b43,"",Beverages,-37.81056904,144.98738708,POINT (144.98738708 -37.81056904),822,EAST MELBOURNE,"3002"
10467,"492cc3f2",f0f80e97,Indian,-37.80955459,144.97779476,POINT (144.97779476 -37.80955459),607,EAST MELBOURNE,"3002"
1551,"767236f4","",Western,-37.80916584,144.97420894,POINT (144.97420894 -37.80916584),174,EAST MELBOURNE,"3002"
3697,"5a011bfd","2e50ca91",Indian,-37.83621940,144.93464299,POINT (144.93464299 -37.8362194),193,PORT MELBOURNE,"3207"
12801,cb0f6504,"",Desserts,-37.83530884,144.93623094,POINT (144.93623094 -37.83530884),600,PORT MELBOURNE,"3207"
2905,"1de090a0","",Indian,-37.81034113,144.96553028,POINT (144.96553028 -37.81034113),843,MELBOURNE,"3000"
5573,ed9dc7bf,"",Snacks,-37.82998542,144.98692796,POINT (144.98692796 -37.82998542),946,SOUTH YARRA,"3141"
10597,"89c43106","",Healthy,-37.82885788,144.98562780,POINT (144.9856278 -37.82885788),615,SOUTH YARRA,"3141"
6886,"63e62dc1","20cce73f",Indian,-37.84094284,144.98885793,POINT (144.98885793 -37.84094284),925,SOUTH YARRA,"3141"
3608,"4861c6d5",af6da95f,Japanese,-37.84083941,144.98807679,POINT (144.98807679 -37.84083941),411,SOUTH YARRA,"3141"
3285,e8e080ff,"",Desserts,-37.79068584,144.94156094,POINT (144.94156094 -37.79068584),780,NORTH MELBOURNE,"3051"
1779,a97b1830,"339d934f",Western,-37.79043228,144.93872985,POINT (144.93872985 -37.79043228),353,NORTH MELBOURNE,"3051"
15702,dd84ab70,e649ba9a,Japanese,-37.79007984,144.94057994,POINT (144.94057994 -37.79007984),838,NORTH MELBOURNE,"3051"
1150,"9d8f796f","",Indian,-37.83480984,144.93753994,POINT (144.93753994 -37.83480984),951,PORT MELBOURNE,"3207"
5534,cf68db41,"9c65d566",Beverages,-37.84919684,144.98568993,POINT (144.98568993 -37.84919684),971,PRAHRAN,"3181"
8867,e54d593e,"4bfa0362",Western,-37.79915083,144.92733394,POINT (144.92733394 -37.79915083),665,KENSINGTON,"3031"
17243,e3c2fe66,"46b646d4",Healthy,-37.80578984,144.94208494,POINT (144.94208494 -37.80578984),891,WEST MELBOURNE,"3003"
20040,b687d760,"1046f8f9",Beverages,-37.79678711,144.92027538,POINT (144.92027538 -37.79678711),538,KENSINGTON,"3031"
7368,"5e0c25e1","",Desserts,-37.80128545,144.95107143,POINT (144.95107143 -37.80128545),407,NORTH MELBOURNE,"3051"
19565,e0fe3128,"",Indian,-37.80127980,144.95122064,POINT (144.95122064 -37.8012798),92,NORTH MELBOURNE,"3051"
4041,bb07b9fd,"",Indian,-37.80079563,144.94658488,POINT (144.94658488 -37.80079563),867,NORTH MELBOURNE,"3051"
15974,"2c6c63c1","9263cd35",Indian,-37.80056716,144.94826044,POINT (144.94826044 -37.80056716),617,NORTH MELBOURNE,"3051"
1893,"3d1d27f8","",Indian,-37.84392084,144.98806093,POINT (144.98806093 -37.84392084),441,SOUTH YARRA,"3141"
20207,"6a94895d","",Snacks,-37.84349759,144.98684943,POINT (144.98684943 -37.84349759),255,SOUTH YARRA,"3141"
15069,d6ae05f5,"580f5265",Healthy,-37.83592189,144.97667707,POINT (144.97667707 -37.83592189),201,SOUTH YARRA,"3141"
2361,b61b3a0f,"",Southeast Asian,-37.84155784,144.99215493,POINT (144.99215493 -37.84155784),146,SOUTH YARRA,"3141"
21724,d3931915,"36fbb1a7",Beverages,-37.79675487,144.96841387,POINT (144.96841387 -37.79675487),539,CARLTON,"3053"
8345,"43173b19","",Indian,-37.80372403,144.94862766,POINT (144.94862766 -37.80372403),706,NORTH MELBOURNE,"3051"
953,e4f9a49e,"",Indian,-37.82010060,144.95131589,POINT (144.95131589 -37.8201006),593,DOCKLANDS,"3008"
21481,"0940fe16","",Western,-37.83784186,144.93542491,POINT (144.93542491 -37.83784186),159,PORT MELBOURNE,"3207"
497,"0ac6623a","7375776a",Western,-37.83758278,144.98909043,POINT (144.98909043 -37.83758278),396,SOUTH YARRA,"3141"
3978,ac0b562f,"4bfa0362",Western,-37.83586391,144.98925198,POINT (144.98925198 -37.83586391),546,SOUTH YARRA,"3141"
11683,"12221fc9","",Indian,-37.80162084,144.94744694,POINT (144.94744694 -37.80162084),272,NORTH MELBOURNE,"3051"
13164,e510bbcd,c06f2f01,Western,-37.80335884,144.94904494,POINT (144.94904494 -37.80335884),878,NORTH MELBOURNE,"3051"
4572,"64d675be",debcf125,Indian,-37.82634120,144.96299332,POINT (144.96299332 -37.8263412),148,SOUTHBANK,"3006"
1797,c52f8b08,"80924b01",Indian,-37.79429878,144.92436973,POINT (144.92436973 -37.79429878),837,KENSINGTON,"3031"
14186,"0c443728","",Indian,-37.79409483,144.92474995,POINT (144.92474995 -37.79409483),831,KENSINGTON,"3031"
15657,d4dec6ff,c116df5d,Beverages,-37.79391883,144.92443695,POINT (144.92443695 -37.79391883),626,KENSINGTON,"3031"
590,d64a76fb,"",Indian,-37.85173058,144.99641184,POINT (144.99641184 -37.85173058),757,PRAHRAN,"3181"
7958,"4fa9591b","155321b6",Beverages,-37.85098129,144.99678628,POINT (144.99678628 -37.85098129),524,PRAHRAN,"3181"
1428,e6bf0802,"",Western,-37.83619684,144.95301194,POINT (144.95301194 -37.83619684),363,SOUTH MELBOURNE,"3205"
14777,"62a4e370",a6dcdf34,Beverages,-37.83450539,144.95891769,POINT (144.95891769 -37.83450539),520,SOUTH MELBOURNE,"3205"
4888,"8039b41e",e3782312,Indian,-37.83406444,144.96199054,POINT (144.96199054 -37.83406444),545,SOUTH MELBOURNE,"3205"
18626,ae13957f,aac0d52c,Snacks,-37.83404229,144.96070454,POINT (144.96070454 -37.83404229),695,SOUTH MELBOURNE,"3205"
14808,"19f3c9c4",f6040d43,Snacks,-37.83326519,144.96319424,POINT (144.96319424 -37.83326519),483,SOUTH MELBOURNE,"3205"
11981,"8e30b4dd","",Beverages,-37.83289084,144.96604493,POINT (144.96604493 -37.83289084),901,SOUTH MELBOURNE,"3205"
11874,"8af52d22","",Snacks,-37.83284784,144.96617093,POINT (144.96617093 -37.83284784),596,SOUTH MELBOURNE,"3205"
22486,f1283932,"",Desserts,-37.83282284,144.96473993,POINT (144.96473993 -37.83282284),609,SOUTH MELBOURNE,"3205"
17957,"5b2ebdb5","",Snacks,-37.83280294,144.96480012,POINT (144.96480012 -37.83280294),332,SOUTH MELBOURNE,"3205"
14260,"46d6f2ab","087ef86e",Desserts,-37.85492584,145.00459392,POINT (145.00459392 -37.85492584),912,PRAHRAN,"3181"
13856,"4bbaafd4","",Beverages,-37.85465684,145.00463592,POINT (145.00463592 -37.85465684),574,PRAHRAN,"3181"
3785,"2db35812","08159b4b",Beverages,-37.83820483,144.92409394,POINT (144.92409394 -37.83820483),124,PORT MELBOURNE,"3207"
22997,"92ed61b0","7fc00fdd",Desserts,-37.83368190,144.94848345,POINT (144.94848345 -37.8336819),738,PORT MELBOURNE,"3207"
13869,"365af475",c5a60f2a,Indian,-37.79995284,144.97184394,POINT (144.97184394 -37.79995284),434,CARLTON,"3053"
16036,"3f17d73f","",Snacks,-37.79976164,144.97220149,POINT (144.97220149 -37.79976164),869,CARLTON,"3053"
1232,"7eba78d6","",Snacks,-37.79950984,144.97171994,POINT (144.97171994 -37.79950984),362,CARLTON,"3053"
21668,d0a44335,"",Indian,-37.79398184,144.93213494,POINT (144.93213494 -37.79398184),181,KENSINGTON,"3031"
3190,"557f51ee",cb81796b,Indian,-37.79363184,144.93221294,POINT (144.93221294 -37.79363184),325,KENSINGTON,"3031"
7749,"95192e64","",Japanese,-37.80050718,144.95954027,POINT (144.95954027 -37.80050718),91,CARLTON,"3053"
1698,"0f86fbb9","70ccdea9",Snacks,-37.79547914,144.91780946,POINT (144.91780946 -37.79547914),783,KENSINGTON,"3031"
2374,b756b7c9,"29100abf",Indian,-37.83844783,144.91896194,POINT (144.91896194 -37.83844783),621,PORT MELBOURNE,"3207"
19850,fb0fe438,"4f547c83",Western,-37.83815483,144.91924294,POINT (144.91924294 -37.83815483),282,PORT MELBOURNE,"3207"
2730,eebdd6f9,"",Indian,-37.81174418,144.94974010,POINT (144.9497401 -37.81174418),975,WEST MELBOURNE,"3003"
6001,"43e31ebb","1c70c3d9",Healthy,-37.83989661,144.94145649,POINT (144.94145649 -37.83989661),519,PORT MELBOURNE,"3207"
13178,"45472d51",f457434d,Desserts,-37.83802796,144.94252314,POINT (144.94252314 -37.83802796),587,PORT MELBOURNE,"3207"
13463,"2ebabaf4","",Chinese,-37.83790717,144.94328432,POINT (144.94328432 -37.83790717),528,PORT MELBOURNE,"3207"
2145,"017871ff","7375776a",Western,-37.83786484,144.94268194,POINT (144.94268194 -37.83786484),170,PORT MELBOURNE,"3207"
8326,a0dd3408,"10940d7c",Western,-37.83647665,144.94395016,POINT (144.94395016 -37.83647665),935,PORT MELBOURNE,"3207"
2496,"52cfaba3","",Snacks,-37.83616268,144.94424974,POINT (144.94424974 -37.83616268),514,PORT MELBOURNE,"3207"
17884,"4fb0e07f","4b3dd1e4",Indian,-37.83503010,144.94641232,POINT (144.94641232 -37.8350301),868,PORT MELBOURNE,"3207"
9792,f016686d,"",Desserts,-37.83476514,144.94517230,POINT (144.9451723 -37.83476514),856,PORT MELBOURNE,"3207"
248,eac582b5,b6620d07,Japanese,-37.83373169,144.94647858,POINT (144.94647858 -37.83373169),730,PORT MELBOURNE,"3207"
21714,"3ecdb7ea",ee86b3e0,Indian,-37.83368684,144.94652494,POINT (144.94652494 -37.83368684),963,PORT MELBOURNE,"3207"
12729,d74c5343,"",Snacks,-37.83293084,144.94784694,POINT (144.94784694 -37.83293084),818,PORT MELBOURNE,"3207"
10069,"55263096","5a3894f2",Western,-37.79457369,144.95672814,POINT (144.95672814 -37.79457369),292,PARKVILLE,"3052"
20348,a38d90cb,"",Snacks,-37.79393944,144.92312020,POINT (144.9231202 -37.79393944),525,KENSINGTON,"3031"
16042,"74adcb81",ac2114fc,Indian,-37.79353409,144.92354125,POINT (144.92354125 -37.79353409),741,KENSINGTON,"3031"
7492,"56fcd6b0","",Indian,-37.85181984,145.00317793,POINT (145.00317793 -37.85181984),560,PRAHRAN,"3181"
20391,b88ef22c,"2e50ca91",Indian,-37.84383184,144.94016378,POINT (144.94016378 -37.84383184),916,PORT MELBOURNE,"3207"
5557,a23249d8,c7853d60,Beverages,-37.83950719,144.92866363,POINT (144.92866363 -37.83950719),631,PORT MELBOURNE,"3207"
10108,"1759e96d","4b8cd246",Japanese,-37.83887539,144.92588954,POINT (144.92588954 -37.83887539),936,PORT MELBOURNE,"3207"
21872,"5dc6345a","2f1329c4",Beverages,-37.83724808,144.92786256,POINT (144.92786256 -37.83724808),154,PORT MELBOURNE,"3207"
9158,"594277af","",Chinese,-37.78883583,144.92428095,POINT (144.92428095 -37.78883583),74,KENSINGTON,"3031"
19085,b9fe7d6e,"",Western,-37.80221284,144.95004823,POINT (144.95004823 -37.80221284),509,NORTH MELBOURNE,"3051"
22032,"273d4212","5591a964",Japanese,-37.85074312,144.99754258,POINT (144.99754258 -37.85074312),165,PRAHRAN,"3181"
5012,ff799c98,"",Indian,-37.84856684,144.99788993,POINT (144.99788993 -37.84856684),726,PRAHRAN,"3181"
17232,ccaec89b,"",Snacks,-37.84810884,144.99795893,POINT (144.99795893 -37.84810884),184,PRAHRAN,"3181"
21623,"507a50bc","0c683265",Western,-37.79628684,144.95522694,POINT (144.95522694 -37.79628684),849,PARKVILLE,"3052"
16140,e7263ce5,"",Snacks,-37.82846226,144.93679983,POINT (144.93679983 -37.82846226),635,PORT MELBOURNE,"3207"
534,"75e97091","2e50ca91",Indian,-37.83585557,144.91537348,POINT (144.91537348 -37.83585557),314,PORT MELBOURNE,"3207"
16814,"17021476","",Indian,-37.78980484,144.94012094,POINT (144.94012094 -37.78980484),440,NORTH MELBOURNE,"3051"
2345,"4b9e67fe","",Indian,-37.78890064,144.93948857,POINT (144.93948857 -37.78890064),273,NORTH MELBOURNE,"3051"
22040,"606629d7",c9fe5868,Indian,-37.81598779,144.95632191,POINT (144.95632191 -37.81598779),845,MELBOURNE,"3000"
16501,"6e2bffff","4b01ebbd",Beverages,-37.81492574,144.96004072,POINT (144.96004072 -37.81492574),654,MELBOURNE,"3000"
4194,"837e590b","",Indian,-37.81306295,144.96800950,POINT (144.9680095 -37.81306295),300,MELBOURNE,"3000"
2797,bbc53ab3,"64733d7c",Beverages,-37.81205350,144.97136179,POINT (144.97136179 -37.8120535),293,MELBOURNE,"3000"
15479,"2e0982f6","",Desserts,-37.80199864,144.96109999,POINT (144.96109999 -37.80199864),266,CARLTON,"3053"
19533,"9533a807","339d934f",Western,-37.85476884,145.00277993,POINT (145.00277993 -37.85476884),230,PRAHRAN,"3181"
17266,"6880f613","",Beverages,-37.82675850,144.94578716,POINT (144.94578716 -37.8267585),629,SOUTH MELBOURNE,"3205"
22171,"18a065eb","",Indian,-37.81605691,144.98972154,POINT (144.98972154 -37.81605691),44,EAST MELBOURNE,"3002"
12170,baf5834a,"426e3614",Healthy,-37.84626198,144.99503861,POINT (144.99503861 -37.84626198),143,SOUTH YARRA,"3141"
10204,"78f0792b","",Western,-37.83859584,144.94639994,POINT (144.94639994 -37.83859584),910,PORT MELBOURNE,"3207"
20957,"8592224c","",Snacks,-37.83676584,144.94324594,POINT (144.94324594 -37.83676584),681,PORT MELBOURNE,"3207"
1288,a76776a2,"",Indian,-37.83620784,144.94228494,POINT (144.94228494 -37.83620784),129,PORT MELBOURNE,"3207"
11811,ae70fd4d,"5591a964",Japanese,-37.83375184,144.93963394,POINT (144.93963394 -37.83375184),439,PORT MELBOURNE,"3207"
5424,"9b33d0c8","",Snacks,-37.83326284,144.93976494,POINT (144.93976494 -37.83326284),399,PORT MELBOURNE,"3207"
18375,"4416884a",c06f2f01,Western,-37.83090360,144.93731810,POINT (144.9373181 -37.8309036),449,PORT MELBOURNE,"3207"
18932,e1dbc7bd,"",Indian,-37.83873684,144.96173593,POINT (144.96173593 -37.83873684),473,SOUTH MELBOURNE,"3205"
2801,"32dc02c5","965adf15",Indian,-37.83848858,144.96252851,POINT (144.96252851 -37.83848858),841,SOUTH MELBOURNE,"3205"
12008,"26f5a67c",f9aa47f6,Japanese,-37.78557009,144.93008958,POINT (144.93008958 -37.78557009),379,FLEMINGTON,"3031"
3424,"623d1ee9","",Snacks,-37.78141283,144.92868195,POINT (144.92868195 -37.78141283),542,FLEMINGTON,"3031"
1988,"607462b9","1bdb508c",Beverages,-37.78850135,144.93087397,POINT (144.93087397 -37.78850135),147,KENSINGTON,"3031"
8360,"1ee2dc15",b832c678,Indian,-37.83506884,144.97634793,POINT (144.97634793 -37.83506884),126,SOUTH YARRA,"3141"
20,"0adf63d9","",Indian,-37.79351284,144.94549194,POINT (144.94549194 -37.79351284),507,NORTH MELBOURNE,"3051"
21551,bb25e46f,"0c3fe6a3",Indian,-37.79334499,144.94394984,POINT (144.94394984 -37.79334499),289,NORTH MELBOURNE,"3051"
1753,"3b33ffe8","3d377a5c",Southeast Asian,-37.79847384,144.93445094,POINT (144.93445094 -37.79847384),202,KENSINGTON,"3031"
6735,"17f8bf98","",Indian,-37.79828524,144.93527489,POINT (144.93527489 -37.79828524),766,KENSINGTON,"3031"
12641,"86f0b8b9","15992794",Western,-37.79807484,144.93349014,POINT (144.93349014 -37.79807484),1,KENSINGTON,"3031"
16326,"5d4fcdf2","",Western,-37.82875481,144.94227760,POINT (144.9422776 -37.82875481),589,PORT MELBOURNE,"3207"
5644,"74b57ec5","0c3fe6a3",Indian,-37.83239042,144.94849320,POINT (144.9484932 -37.83239042),340,SOUTH MELBOURNE,"3205"
1430,"5462cbfe",ec3b749b,Indian,-37.83018627,144.95124225,POINT (144.95124225 -37.83018627),515,SOUTH MELBOURNE,"3205"
16530,"7e96dd50","",Indian,-37.82962651,144.95215533,POINT (144.95215533 -37.82962651),404,SOUTH MELBOURNE,"3205"
18132,b1e37f0b,"4860db34",Western,-37.84985784,144.98784193,POINT (144.98784193 -37.84985784),763,PRAHRAN,"3181"
6731,fa46c8bb,"",Indian,-37.77667127,144.93894226,POINT (144.93894226 -37.77667127),471,PARKVILLE,"3052"
6303,"45e60ede","",Indian,-37.79524001,144.92430815,POINT (144.92430815 -37.79524001),479,KENSINGTON,"3031"
2146,"7155be06","",Chinese,-37.79328559,144.91891814,POINT (144.91891814 -37.79328559),548,KENSINGTON,"3031"
1521,"70bb8ef5","",Indian,-37.79268183,144.91913195,POINT (144.91913195 -37.79268183),35,KENSINGTON,"3031"
9761,"9ee83ad5","",Healthy,-37.78828861,144.92762704,POINT (144.92762704 -37.78828861),737,KENSINGTON,"3031"
22497,"5c512aff","0f019c65",Snacks,-37.82316368,144.93911897,POINT (144.93911897 -37.82316368),297,DOCKLANDS,"3008"
3960,a2b7188e,"",Indian,-37.79572680,144.97297148,POINT (144.97297148 -37.7957268),633,CARLTON,"3053"
5168,"976486d6",c9da7ce7,Japanese,-37.79616984,144.94333994,POINT (144.94333994 -37.79616984),858,NORTH MELBOURNE,"3051"
16125,"7f96bbf4","",Indian,-37.79578867,144.94361256,POINT (144.94361256 -37.79578867),80,NORTH MELBOURNE,"3051"
16104,"100fcf81","9263cd35",Indian,-37.79554835,144.94129480,POINT (144.9412948 -37.79554835),960,NORTH MELBOURNE,"3051"
8800,cebfcf2c,"",Indian,-37.78189983,144.92614695,POINT (144.92614695 -37.78189983),4,FLEMINGTON,"3031"
4486,"81dff8d8","",Western,-37.78166983,144.92383695,POINT (144.92383695 -37.78166983),95,FLEMINGTON,"3031"
14659,e76e4b18,"71c90075",Beverages,-37.80447684,144.95564794,POINT (144.95564794 -37.80447684),563,NORTH MELBOURNE,"3051"
21503,"65b2b63e","",Indian,-37.80443184,144.95566094,POINT (144.95566094 -37.80443184),93,NORTH MELBOURNE,"3051"
1552,"1442e25f",f214cfef,Indian,-37.80663284,144.95527094,POINT (144.95527094 -37.80663284),727,WEST MELBOURNE,"3003"
14250,a177ea45,a5fe814f,Japanese,-37.80656873,144.95476744,POINT (144.95476744 -37.80656873),459,WEST MELBOURNE,"3003"
6004,"2870cc1c","10940d7c",Indian,-37.81419789,144.94170279,POINT (144.94170279 -37.81419789),788,DOCKLANDS,"3008"
5444,"018dba68","",Snacks,-37.81416262,144.94087962,POINT (144.94087962 -37.81416262),214,DOCKLANDS,"3008"
4482,"43deea44","6b307f21",Snacks,-37.80177246,144.96495711,POINT (144.96495711 -37.80177246),175,CARLTON,"3053"
4261,"54b1a67b","",Indian,-37.79798084,144.96616194,POINT (144.96616194 -37.79798084),873,CARLTON,"3053"
4071,cb4d9adc,a42d229f,Hong Kong Style,-37.79796324,144.96564324,POINT (144.96564324 -37.79796324),415,CARLTON,"3053"
6294,cfb6702f,"",Indian,-37.79774765,144.96620325,POINT (144.96620325 -37.79774765),392,CARLTON,"3053"
18585,"3523289e","",Indian,-37.79765784,144.96622794,POINT (144.96622794 -37.79765784),171,CARLTON,"3053"
8478,ba226d27,e9891a3f,Indian,-37.79584275,144.96600564,POINT (144.96600564 -37.79584275),949,CARLTON,"3053"
22439,"9d7697f1","",Western,-37.80091084,144.97304394,POINT (144.97304394 -37.80091084),874,CARLTON,"3053"
7364,"5fb6a265",c4a01c2d,Snacks,-37.84770442,144.99461365,POINT (144.99461365 -37.84770442),205,PRAHRAN,"3181"
4585,"00981de5",b988b8e5,Snacks,-37.83967733,144.98757427,POINT (144.98757427 -37.83967733),947,SOUTH YARRA,"3141"
21147,"1a5d9318","4b01ebbd",Beverages,-37.83705923,144.98849693,POINT (144.98849693 -37.83705923),452,SOUTH YARRA,"3141"
14711,"35ea1391","36fbb1a7",Beverages,-37.83617184,144.98866893,POINT (144.98866893 -37.83617184),271,SOUTH YARRA,"3141"
8356,c2d39df2,"",Indian,-37.83461884,144.98954093,POINT (144.98954093 -37.83461884),683,SOUTH YARRA,"3141"
4292,c66e249e,"",Western,-37.84647184,144.99867393,POINT (144.99867393 -37.84647184),375,SOUTH YARRA,"3141"
3333,c5b3a70c,"",Hong Kong Style,-37.83964384,144.96052993,POINT (144.96052993 -37.83964384),813,SOUTH MELBOURNE,"3205"
13983,"311eeb9f","4bfa0362",Western,-37.83880141,144.96024654,POINT (144.96024654 -37.83880141),876,SOUTH MELBOURNE,"3205"
15462,"04e0614d",fe306444,Desserts,-37.83464784,144.95825794,POINT (144.95825794 -37.83464784),961,SOUTH MELBOURNE,"3205"
13264,ba6307c1,"6a4399ba",Beverages,-37.83417862,144.95801219,POINT (144.95801219 -37.83417862),222,SOUTH MELBOURNE,"3205"
11591,"8163db96",b3280fcb,Beverages,-37.79290435,144.96806219,POINT (144.96806219 -37.79290435),651,CARLTON,"3053"
14367,"502d03ab",b6620d07,Japanese,-37.81669900,144.96564915,POINT (144.96564915 -37.816699),929,MELBOURNE,"3000"
6502,"890cb3a2","",Indian,-37.83664578,144.99646747,POINT (144.99646747 -37.83664578),278,SOUTH YARRA,"3141"
16772,"0f19d065","",Indian,-37.85067684,144.99371893,POINT (144.99371893 -37.85067684),744,PRAHRAN,"3181"
21227,ee80e4a5,e14b373f,Desserts,-37.85040008,144.99337686,POINT (144.99337686 -37.85040008),826,PRAHRAN,"3181"
3107,"756ac184",d3da4fa6,Indian,-37.84967276,144.99390360,POINT (144.9939036 -37.84967276),304,PRAHRAN,"3181"
20092,"99630291","8dc94713",Beverages,-37.84929529,144.99354633,POINT (144.99354633 -37.84929529),37,PRAHRAN,"3181"
4131,bc1a3af9,"",Beverages,-37.84649209,144.99442588,POINT (144.99442588 -37.84649209),493,SOUTH YARRA,"3141"
15739,"0d4fa6b7",ee86b3e0,Indian,-37.84389584,144.99452193,POINT (144.99452193 -37.84389584),927,SOUTH YARRA,"3141"
23045,"07e34623","4b01ebbd",Beverages,-37.84290784,144.99471393,POINT (144.99471393 -37.84290784),722,SOUTH YARRA,"3141"
22269,ebcf2fe5,"",Desserts,-37.84154197,144.99505380,POINT (144.9950538 -37.84154197),432,SOUTH YARRA,"3141"
10953,"9aeeeec0","",Indian,-37.79704484,144.94906194,POINT (144.94906194 -37.79704484),430,NORTH MELBOURNE,"3051"
4672,"0bc655c3",be318d09,Snacks,-37.79701184,144.94976694,POINT (144.94976694 -37.79701184),97,NORTH MELBOURNE,"3051"
2166,"4e0ab676","4b01ebbd",Beverages,-37.84818905,144.99229038,POINT (144.99229038 -37.84818905),541,PRAHRAN,"3181"
16743,"8aa73eba","",Snacks,-37.85230784,145.00641492,POINT (145.00641492 -37.85230784),333,PRAHRAN,"3181"
6395,ae29eb9d,ee86b3e0,Indian,-37.80482484,144.95259094,POINT (144.95259094 -37.80482484),742,NORTH MELBOURNE,"3051"
21653,e1bb65c7,"5a64ad7b",Western,-37.80437484,144.95213894,POINT (144.95213894 -37.80437484),281,NORTH MELBOURNE,"3051"
12047,"349a03a0","",Desserts,-37.80214084,144.95253794,POINT (144.95253794 -37.80214084),385,NORTH MELBOURNE,"3051"
20836,"22786f66","9263cd35",Indian,-37.79945783,144.92683694,POINT (144.92683694 -37.79945783),250,KENSINGTON,"3031"
12627,f38c914c,"809afb27",Indian,-37.85618684,145.00561692,POINT (145.00561692 -37.85618684),336,PRAHRAN,"3181"
4014,"2681a29d","",Snacks,-37.78428984,144.93238195,POINT (144.93238195 -37.78428984),263,FLEMINGTON,"3031"
11806,a203cea1,"",Indian,-37.78797984,144.94188594,POINT (144.94188594 -37.78797984),792,PARKVILLE,"3052"
20739,e2d645e2,"",Snacks,-37.83063884,144.95418794,POINT (144.95418794 -37.83063884),713,SOUTHBANK,"3006"
5299,"0e72349c","",Vegetarian,-37.82676494,144.95948481,POINT (144.95948481 -37.82676494),284,SOUTHBANK,"3006"
18637,cecfc5d6,"8dc94713",Beverages,-37.82391583,144.96212172,POINT (144.96212172 -37.82391583),6,SOUTHBANK,"3006"
8974,a40f7c8e,"6e351af4",Desserts,-37.83345435,144.95021315,POINT (144.95021315 -37.83345435),119,SOUTH MELBOURNE,"3205"
1526,b30ed211,"",Snacks,-37.83301800,144.95106558,POINT (144.95106558 -37.833018),708,SOUTH MELBOURNE,"3205"
3164,"18563086","92005371",Indian,-37.84184384,144.99788993,POINT (144.99788993 -37.84184384),568,SOUTH YARRA,"3141"
3045,"173d73b2","",Desserts,-37.84094222,144.99771133,POINT (144.99771133 -37.84094222),844,SOUTH YARRA,"3141"
8031,"175d29b8","",Indian,-37.79098726,144.93100950,POINT (144.9310095 -37.79098726),288,KENSINGTON,"3031"
3053,"52606cca",bf77fa50,Western,-37.83833284,144.99381493,POINT (144.99381493 -37.83833284),641,SOUTH YARRA,"3141"
19536,e768b663,ec11a1cd,Hong Kong Style,-37.83827747,144.99355662,POINT (144.99355662 -37.83827747),401,SOUTH YARRA,"3141"
20798,c5c568ac,"",Indian,-37.83822677,144.99389164,POINT (144.99389164 -37.83822677),142,SOUTH YARRA,"3141"
20286,"3d9eeed3","",Healthy,-37.78703342,144.92523225,POINT (144.92523225 -37.78703342),847,FLEMINGTON,"3031"
6734,"99405966",e14b373f,Desserts,-37.83378920,144.96066872,POINT (144.96066872 -37.8337892),602,SOUTH MELBOURNE,"3205"
16004,"57a3e914","",Western,-37.83315582,144.96091859,POINT (144.96091859 -37.83315582),310,SOUTH MELBOURNE,"3205"
3381,"535088ab","8dc94713",Beverages,-37.83289879,144.96025013,POINT (144.96025013 -37.83289879),699,SOUTH MELBOURNE,"3205"
9277,a33f31e0,"",Indian,-37.83259919,144.96012203,POINT (144.96012203 -37.83259919),71,SOUTH MELBOURNE,"3205"
15808,"9e14ac63","4b01ebbd",Beverages,-37.83635884,144.93286094,POINT (144.93286094 -37.83635884),647,PORT MELBOURNE,"3207"
22690,"0c6bea76","",Indian,-37.84920084,145.00016893,POINT (145.00016893 -37.84920084),307,PRAHRAN,"3181"
13703,"5712212d","9f52af27",Beverages,-37.84907880,145.00145657,POINT (145.00145657 -37.8490788),328,PRAHRAN,"3181"
19922,c80c2a8f,"4bfa0362",Western,-37.84356484,144.99411593,POINT (144.99411593 -37.84356484),513,SOUTH YARRA,"3141"
12382,"689dd05f","",Japanese,-37.85634484,145.00535192,POINT (145.00535192 -37.85634484),770,PRAHRAN,"3181"
19218,"8399a659","",Desserts,-37.85631384,145.00510192,POINT (145.00510192 -37.85631384),871,PRAHRAN,"3181"
2196,a5b1d466,"06bd5916",Indian,-37.83095974,144.98685677,POINT (144.98685677 -37.83095974),510,SOUTH YARRA,"3141"
10637,d8b5ecb1,"25d54c8e",Indian,-37.83064545,144.98692213,POINT (144.98692213 -37.83064545),436,SOUTH YARRA,"3141"
6618,"12675ae9","",Indian,-37.80435822,144.95720294,POINT (144.95720294 -37.80435822),378,NORTH MELBOURNE,"3051"
12313,"27cb4a4a","",Snacks,-37.83565584,144.96702493,POINT (144.96702493 -37.83565584),703,SOUTH MELBOURNE,"3205"
21343,"412511ba","",Indian,-37.83482584,144.96852493,POINT (144.96852493 -37.83482584),199,SOUTH MELBOURNE,"3205"
15890,"693d38b6","",Indian,-37.83452784,144.96846493,POINT (144.96846493 -37.83452784),318,SOUTH MELBOURNE,"3205"
1346,ce2ffc28,"",Indian,-37.79054398,144.93356384,POINT (144.93356384 -37.79054398),555,KENSINGTON,"3031"
20800,a173e883,"687826f9",Chinese,-37.81735449,144.96082585,POINT (144.96082585 -37.81735449),620,MELBOURNE,"3000"
11998,"66ab7ef4","46b646d4",Healthy,-37.81595684,144.96423094,POINT (144.96423094 -37.81595684),521,MELBOURNE,"3000"
1050,"0b1e110d","",Southeast Asian,-37.81570697,144.96508568,POINT (144.96508568 -37.81570697),217,MELBOURNE,"3000"
17386,"0a3aec43","",Indian,-37.81539229,144.96760265,POINT (144.96760265 -37.81539229),356,MELBOURNE,"3000"
2017,"8b90e9c5","",Indian,-37.84689284,144.99218493,POINT (144.99218493 -37.84689284),829,PRAHRAN,"3181"
15538,bcb1a2e7,abb85475,Hong Kong Style,-37.84625884,144.98832693,POINT (144.98832693 -37.84625884),238,PRAHRAN,"3181"
19189,b7697ede,"",Healthy,-37.84652462,144.99288949,POINT (144.99288949 -37.84652462),745,SOUTH YARRA,"3141"
16117,"95d36fb1",efcd37ee,Indian,-37.84969384,144.99107493,POINT (144.99107493 -37.84969384),791,PRAHRAN,"3181"
7245,"9de25fb8","",Japanese,-37.82536958,144.94889533,POINT (144.94889533 -37.82536958),173,SOUTH WHARF,"3006"
5284,b884b752,"3f8e85ad",Indian,-37.84144684,145.00366193,POINT (145.00366193 -37.84144684),919,SOUTH YARRA,"3141"
11719,"598f123c","6f4ac446",Snacks,-37.79082283,144.92329883,POINT (144.92329883 -37.79082283),312,KENSINGTON,"3031"
11831,"3efa1759","5bafc8d9",Southeast Asian,-37.78598346,144.92384687,POINT (144.92384687 -37.78598346),56,FLEMINGTON,"3031"
13528,"865b0cc2","",Beverages,-37.80076484,144.95209394,POINT (144.95209394 -37.80076484),517,NORTH MELBOURNE,"3051"
13844,"8e2fc11d","",Indian,-37.83305884,144.95392794,POINT (144.95392794 -37.83305884),502,SOUTH MELBOURNE,"3205"
15081,"243f3e18","",Snacks,-37.82914421,144.97027161,POINT (144.97027161 -37.82914421),466,SOUTHBANK,"3006"
6016,c6c7eb1a,"",Beverages,-37.83440384,144.95042494,POINT (144.95042494 -37.83440384),663,SOUTH MELBOURNE,"3205"
20619,"1c8ffb56","5591a964",Japanese,-37.83368284,144.95458094,POINT (144.95458094 -37.83368284),968,SOUTH MELBOURNE,"3205"
12430,"51044919","73d8be05",Japanese,-37.83344937,144.95345445,POINT (144.95345445 -37.83344937),183,SOUTH MELBOURNE,"3205"
17269,"435001f8","4f18a361",International,-37.83328284,144.95437594,POINT (144.95437594 -37.83328284),448,SOUTH MELBOURNE,"3205"
7152,"0ae2b3f8","645bed93",Snacks,-37.83294384,144.95718094,POINT (144.95718094 -37.83294384),57,SOUTH MELBOURNE,"3205"
3968,d65fafd3,"",Indian,-37.83251093,144.95867009,POINT (144.95867009 -37.83251093),84,SOUTH MELBOURNE,"3205"
468,"8ec837cf","",Western,-37.83536784,144.92828694,POINT (144.92828694 -37.83536784),719,PORT MELBOURNE,"3207"
35,b77d479a,"8dc94713",Beverages,-37.83494184,144.93171894,POINT (144.93171894 -37.83494184),176,PORT MELBOURNE,"3207"
15501,c10f8b53,"",International,-37.84692884,144.99908193,POINT (144.99908193 -37.84692884),223,SOUTH YARRA,"3141"
1832,fa642938,"",Indian,-37.84705884,144.99930593,POINT (144.99930593 -37.84705884),163,SOUTH YARRA,"3141"
2487,a65fb07a,"",Snacks,-37.84473084,145.00016393,POINT (145.00016393 -37.84473084),532,SOUTH YARRA,"3141"
803,"4f1e59ab",e3b98a3d,Indian,-37.84299140,145.00012595,POINT (145.00012595 -37.8429914),512,SOUTH YARRA,"3141"
10244,d94e6bf2,"5239e63f",Western,-37.84235584,145.00038793,POINT (145.00038793 -37.84235584),66,SOUTH YARRA,"3141"
11550,bfef36de,"",Snacks,-37.78662683,144.92284695,POINT (144.92284695 -37.78662683),283,FLEMINGTON,"3031"
20350,"2f12186d","",Beverages,-37.78443787,144.92413492,POINT (144.92413492 -37.78443787),456,FLEMINGTON,"3031"
10017,"6fcc3622","7fc00fdd",Desserts,-37.84002411,144.94568305,POINT (144.94568305 -37.84002411),13,PORT MELBOURNE,"3207"
17573,cd37cca0,c6372c42,Indian,-37.83940484,144.94625294,POINT (144.94625294 -37.83940484),256,PORT MELBOURNE,"3207"
21081,"688dd847","",Japanese,-37.83731184,144.94766294,POINT (144.94766294 -37.83731184),128,PORT MELBOURNE,"3207"
2841,"37c67be9","",Western,-37.84072184,144.99652293,POINT (144.99652293 -37.84072184),824,SOUTH YARRA,"3141"
5975,ac2c6223,"",Beverages,-37.80406519,144.94765831,POINT (144.94765831 -37.80406519),451,NORTH MELBOURNE,"3051"
17391,c0442929,"",Indian,-37.83154678,144.97613858,POINT (144.97613858 -37.83154678),182,MELBOURNE,"3004"
15519,b9bb572d,"8dc94713",Beverages,-37.83014038,144.94428009,POINT (144.94428009 -37.83014038),480,PORT MELBOURNE,"3207"
8630,fd4158dc,d914f336,Snacks,-37.83658507,144.99200415,POINT (144.99200415 -37.83658507),197,SOUTH YARRA,"3141"
5971,"5c1e8ad9",a6f1ed98,Desserts,-37.78212283,144.92394995,POINT (144.92394995 -37.78212283),216,FLEMINGTON,"3031"
19461,d24e9ab0,"339d934f",Western,-37.79680224,144.97183179,POINT (144.97183179 -37.79680224),799,CARLTON,"3053"
21550,b5b8bc8a,"23a932a8",Indian,-37.83255485,144.98834325,POINT (144.98834325 -37.83255485),836,SOUTH YARRA,"3141"
5341,fa2fbf05,"",Western,-37.84191184,144.99019493,POINT (144.99019493 -37.84191184),893,SOUTH YARRA,"3141"
22556,f9f1a587,"",Indian,-37.84012584,144.99064093,POINT (144.99064093 -37.84012584),287,SOUTH YARRA,"3141"
7578,"688f8aa7","",Indian,-37.84247262,144.99434026,POINT (144.99434026 -37.84247262),501,SOUTH YARRA,"3141"
961,"6337f6ec","",Beverages,-37.79577066,144.92684463,POINT (144.92684463 -37.79577066),296,KENSINGTON,"3031"
6493,"4c013441","054b3f64",Beverages,-37.80777270,144.95828809,POINT (144.95828809 -37.8077727),920,MELBOURNE,"3000"
6624,b8167615,"10940d7c",Indian,-37.81468893,144.93874702,POINT (144.93874702 -37.81468893),550,DOCKLANDS,"3008"
8593,"049dee85","4b01ebbd",Beverages,-37.82750197,144.96728351,POINT (144.96728351 -37.82750197),78,SOUTHBANK,"3006"
8862,b0ad597c,"",Vegetarian,-37.82502570,144.96803263,POINT (144.96803263 -37.8250257),251,SOUTHBANK,"3006"
11150,a9666a8d,"",Indian,-37.83444514,144.98620524,POINT (144.98620524 -37.83444514),784,SOUTH YARRA,"3141"
15768,a178e073,"7a5cf801",Southeast Asian,-37.83440345,144.97934538,POINT (144.97934538 -37.83440345),970,SOUTH YARRA,"3141"
429,"16f14424","339d934f",Western,-37.83412498,144.98119168,POINT (144.98119168 -37.83412498),948,SOUTH YARRA,"3141"
13712,"9d7e39e8","",Indian,-37.83572750,144.97869349,POINT (144.97869349 -37.8357275),49,SOUTH YARRA,"3141"
20170,"95c648a1","4b01ebbd",Beverages,-37.83481807,144.97889501,POINT (144.97889501 -37.83481807),803,SOUTH YARRA,"3141"
21576,"8159a1b8","",Western,-37.84622184,144.98715293,POINT (144.98715293 -37.84622184),462,PRAHRAN,"3181"
12587,d2853a60,"",Indian,-37.84952684,144.98864693,POINT (144.98864693 -37.84952684),384,PRAHRAN,"3181"
17581,a73f5d3c,"",Indian,-37.83580471,144.94995633,POINT (144.94995633 -37.83580471),839,SOUTH MELBOURNE,"3205"
18951,"92a5720c",b0dc379c,Snacks,-37.83541389,144.95299855,POINT (144.95299855 -37.83541389),554,SOUTH MELBOURNE,"3205"
11143,"19104fba","5a64ad7b",Western,-37.83539384,144.95138594,POINT (144.95138594 -37.83539384),40,SOUTH MELBOURNE,"3205"
5676,a33fc7c7,"6f4ac446",Snacks,-37.83447412,144.95751533,POINT (144.95751533 -37.83447412),158,SOUTH MELBOURNE,"3205"
9269,"5e0a2494","",Snacks,-37.83430309,144.95773203,POINT (144.95773203 -37.83430309),138,SOUTH MELBOURNE,"3205"
4435,"26139034","10940d7c",Indian,-37.83383484,144.95706494,POINT (144.95706494 -37.83383484),131,SOUTH MELBOURNE,"3205"
9074,"551f66b0","",Indian,-37.83175584,144.96557593,POINT (144.96557593 -37.83175584),361,SOUTH MELBOURNE,"3205"
21708,"3a76945c","",Healthy,-37.82612631,144.92492130,POINT (144.9249213 -37.82612631),425,PORT MELBOURNE,"3207"
659,"7b24de2c","",Beverages,-37.82881270,144.95361356,POINT (144.95361356 -37.8288127),898,SOUTHBANK,"3006"
8142,"16cf2916","",Snacks,-37.78317133,144.92463613,POINT (144.92463613 -37.78317133),729,FLEMINGTON,"3031"
7425,"1d8155c2","",Indian,-37.83864984,144.94377394,POINT (144.94377394 -37.83864984),21,PORT MELBOURNE,"3207"
2831,"5ae683d2","7fc00fdd",Desserts,-37.83543733,144.96269133,POINT (144.96269133 -37.83543733),885,SOUTH MELBOURNE,"3205"
13425,"053c0175","4b01ebbd",Beverages,-37.80386854,144.96735288,POINT (144.96735288 -37.80386854),850,CARLTON,"3053"
22432,b57b487a,"",Indian,-37.80533811,144.96791982,POINT (144.96791982 -37.80533811),166,CARLTON,"3053"
18755,a07b3f69,"055615de",Japanese,-37.80524784,144.96739894,POINT (144.96739894 -37.80524784),358,CARLTON,"3053"
18774,dc8dcbef,"5fbd21b3",Indian,-37.80412024,144.96759821,POINT (144.96759821 -37.80412024),969,CARLTON,"3053"
16164,"110a5f1d","0a39d84a",Indian,-37.80133884,144.96859194,POINT (144.96859194 -37.80133884),437,CARLTON,"3053"
10351,fcfc58b3,"",Chinese,-37.79768249,144.96869224,POINT (144.96869224 -37.79768249),218,CARLTON,"3053"
7732,"1f5a0c1b","7375776a",Western,-37.79665818,144.96886793,POINT (144.96886793 -37.79665818),476,CARLTON,"3053"
18730,fe4ebddf,"519a1642",Western,-37.79401529,144.96986379,POINT (144.96986379 -37.79401529),206,CARLTON,"3053"
13313,"420d086c","4bfa0362",Western,-37.80428534,144.94299287,POINT (144.94299287 -37.80428534),529,NORTH MELBOURNE,"3051"
10282,"9493df4a",df3ebd62,Western,-37.80367262,144.94363438,POINT (144.94363438 -37.80367262),260,NORTH MELBOURNE,"3051"
4469,"77bedfa2","",Desserts,-37.80360884,144.94311094,POINT (144.94311094 -37.80360884),914,NORTH MELBOURNE,"3051"
8714,"1cf100d3","7ff5edab",Beverages,-37.80265755,144.94328503,POINT (144.94328503 -37.80265755),972,NORTH MELBOURNE,"3051"
9848,d97711d9,"",Vegetarian,-37.80129215,144.94417239,POINT (144.94417239 -37.80129215),825,NORTH MELBOURNE,"3051"
19065,"55f2a6af","",Indian,-37.79526384,144.94513594,POINT (144.94513594 -37.79526384),335,NORTH MELBOURNE,"3051"
3340,"7bad1ed4","7cebaad1",Western,-37.79521884,144.94513794,POINT (144.94513794 -37.79521884),400,NORTH MELBOURNE,"3051"
9954,a48faf14,"",Indian,-37.79445188,144.94475786,POINT (144.94475786 -37.79445188),371,NORTH MELBOURNE,"3051"
6175,"9246eec2",f49f225a,Hong Kong Style,-37.79439184,144.94529694,POINT (144.94529694 -37.79439184),710,NORTH MELBOURNE,"3051"
14909,dae162cb,"170b679a",Japanese,-37.80976695,144.95150454,POINT (144.95150454 -37.80976695),24,WEST MELBOURNE,"3003"
12206,"9e931af9",b6620d07,Japanese,-37.83678983,144.92101994,POINT (144.92101994 -37.83678983),630,PORT MELBOURNE,"3207"
17060,"9ab9c490","",Indian,-37.80139787,144.91572144,POINT (144.91572144 -37.80139787),627,WEST MELBOURNE,"3003"
6168,c8aee5bb,"",Indian,-37.83569784,144.96685393,POINT (144.96685393 -37.83569784),139,SOUTH MELBOURNE,"3205"
1128,fbb60c91,"8795da35",Indian,-37.83347681,144.96593825,POINT (144.96593825 -37.83347681),680,SOUTH MELBOURNE,"3205"
1215,"167f03f3","",Indian,-37.79066884,144.93028494,POINT (144.93028494 -37.79066884),577,KENSINGTON,"3031"
12478,"7aa07f87","23cfdb2d",Beverages,-37.78590183,144.92618295,POINT (144.92618295 -37.78590183),123,FLEMINGTON,"3031"
6164,"42fa592f",c334016a,Indian,-37.78520012,144.92264812,POINT (144.92264812 -37.78520012),246,FLEMINGTON,"3031"
7410,"185a063d","",Snacks,-37.83605984,144.92818794,POINT (144.92818794 -37.83605984),291,PORT MELBOURNE,"3207"
21199,cf5b8860,d8f031db,Vegetarian,-37.83602484,144.92772294,POINT (144.92772294 -37.83602484),748,PORT MELBOURNE,"3207"
4174,"4d8a8e2d","",Snacks,-37.83593184,144.92654394,POINT (144.92654394 -37.83593184),9,PORT MELBOURNE,"3207"
8781,"84c7e699","",Indian,-37.83581584,144.92862594,POINT (144.92862594 -37.83581584),801,PORT MELBOURNE,"3207"
18341,d9b9395d,"217ca08b",Japanese,-37.83556483,144.92565594,POINT (144.92565594 -37.83556483),526,PORT MELBOURNE,"3207"
18630,"1254c17b","23cfdb2d",Beverages,-37.83547681,144.92573873,POINT (144.92573873 -37.83547681),457,PORT MELBOURNE,"3207"
8620,"59796f1b","",Desserts,-37.79700684,144.96822194,POINT (144.96822194 -37.79700684),224,CARLTON,"3053"
21696,e8cb6ff0,a7f5aa77,Western,-37.79687184,144.96850994,POINT (144.96850994 -37.79687184),805,CARLTON,"3053"
7428,c9e396f2,"8f633274",Chinese,-37.81788138,144.96520406,POINT (144.96520406 -37.81788138),576,MELBOURNE,"3000"
14343,"6c0311b5","9263cd35",Indian,-37.81683676,144.96407590,POINT (144.9640759 -37.81683676),172,MELBOURNE,"3000"
12656,b1b305fb,f16e2196,Snacks,-37.81586184,144.96419494,POINT (144.96419494 -37.81586184),756,MELBOURNE,"3000"
385,c45062a9,"7abd4827",Indian,-37.81498161,144.96378788,POINT (144.96378788 -37.81498161),344,MELBOURNE,"3000"
21077,b7d54a67,"",Indian,-37.80474904,144.95834449,POINT (144.95834449 -37.80474904),820,MELBOURNE,"3000"
7081,a910cc8f,be205af1,Indian,-37.80455897,144.95825405,POINT (144.95825405 -37.80455897),445,MELBOURNE,"3000"
4414,"12052e43",a7f5aa77,Western,-37.80395284,144.94729194,POINT (144.94729194 -37.80395284),453,NORTH MELBOURNE,"3051"
13567,"68554f18","",Hong Kong Style,-37.80349546,144.94604124,POINT (144.94604124 -37.80349546),319,NORTH MELBOURNE,"3051"
17020,b8306bd8,a6dcdf34,Beverages,-37.78500584,144.93111295,POINT (144.93111295 -37.78500584),417,FLEMINGTON,"3031"
3401,"19fdce8a","",Indian,-37.78487292,144.92966416,POINT (144.92966416 -37.78487292),908,FLEMINGTON,"3031"
9738,"720f2bdc","",Healthy,-37.78480783,144.92906395,POINT (144.92906395 -37.78480783),359,FLEMINGTON,"3031"
7995,ee95312f,d715464f,Indian,-37.83457343,144.96082843,POINT (144.96082843 -37.83457343),718,SOUTH MELBOURNE,"3205"
4130,"9be7b986","4b01ebbd",Beverages,-37.79279612,144.92618376,POINT (144.92618376 -37.79279612),477,KENSINGTON,"3031"
5990,f0263fa6,"0c3fe6a3",Indian,-37.79221878,144.92562395,POINT (144.92562395 -37.79221878),189,KENSINGTON,"3031"
2278,"0d7c9af4","",Indian,-37.81568905,144.96302493,POINT (144.96302493 -37.81568905),368,MELBOURNE,"3000"
15852,d74fd0ca,"",Indian,-37.80362684,144.94977694,POINT (144.94977694 -37.80362684),390,NORTH MELBOURNE,"3051"
3972,f46fcf41,"",Indian,-37.79956726,144.94996533,POINT (144.94996533 -37.79956726),313,NORTH MELBOURNE,"3051"
15285,"3cd900c8","4dc4068c",Indian,-37.79752584,144.95085394,POINT (144.95085394 -37.79752584),48,NORTH MELBOURNE,"3051"
17965,d1b159e3,"",Western,-37.84929584,145.00416693,POINT (145.00416693 -37.84929584),121,PRAHRAN,"3181"
17044,"567cf2cb","519a1642",Western,-37.79481584,144.94274094,POINT (144.94274094 -37.79481584),660,NORTH MELBOURNE,"3051"
4963,a563b9a5,"2e50ca91",Indian,-37.79472384,144.94570794,POINT (144.94570794 -37.79472384),573,NORTH MELBOURNE,"3051"
2328,"785f21d8","",Indian,-37.84353620,144.94148604,POINT (144.94148604 -37.8435362),623,PORT MELBOURNE,"3207"
17289,"9f85c81e","",Indian,-37.84232158,144.94356159,POINT (144.94356159 -37.84232158),679,PORT MELBOURNE,"3207"
6074,"05b7cd86","",Indian,-37.83971573,144.94546029,POINT (144.94546029 -37.83971573),720,PORT MELBOURNE,"3207"
14002,d261fa04,"9f52af27",Beverages,-37.83944629,144.94551322,POINT (144.94551322 -37.83944629),208,PORT MELBOURNE,"3207"
290,a3d77597,cc8548a4,Korean,-37.83684587,144.94625582,POINT (144.94625582 -37.83684587),939,PORT MELBOURNE,"3207"
22626,da8af4a5,"",Snacks,-37.83678144,144.94721209,POINT (144.94721209 -37.83678144),106,PORT MELBOURNE,"3207"
1182,c4fe04cd,"",Indian,-37.83659764,144.94752399,POINT (144.94752399 -37.83659764),423,PORT MELBOURNE,"3207"
7914,a695b7b5,"",Indian,-37.83619406,144.94690752,POINT (144.94690752 -37.83619406),331,PORT MELBOURNE,"3207"
7177,ba1aae4f,"64989eca",Korean,-37.83592512,144.94737151,POINT (144.94737151 -37.83592512),667,PORT MELBOURNE,"3207"
7663,f61f3322,"",Healthy,-37.84243504,144.94216440,POINT (144.9421644 -37.84243504),342,PORT MELBOURNE,"3207"
194,"19cf83cd","0c3fe6a3",Indian,-37.84116903,144.94303586,POINT (144.94303586 -37.84116903),53,PORT MELBOURNE,"3207"
4313,"1545928d","",Indian,-37.84014367,144.94356611,POINT (144.94356611 -37.84014367),372,PORT MELBOURNE,"3207"
539,"6b28bbe3","3f2df990",Japanese,-37.84818719,144.99641592,POINT (144.99641592 -37.84818719),564,PRAHRAN,"3181"
10315,"3d9dbf90","",Indian,-37.83411898,144.94074504,POINT (144.94074504 -37.83411898),465,PORT MELBOURNE,"3207"
11767,"6a7fc18d","",Desserts,-37.83246984,144.94341094,POINT (144.94341094 -37.83246984),387,PORT MELBOURNE,"3207"
2382,bb7c318b,"347a72c5",Indian,-37.80918104,144.96847178,POINT (144.96847178 -37.80918104),162,MELBOURNE,"3000"
10689,"74513fff","",Indian,-37.80900130,144.96811716,POINT (144.96811716 -37.8090013),685,MELBOURNE,"3000"
14933,"3d482a7b","36fbb1a7",Beverages,-37.79013283,144.92463295,POINT (144.92463295 -37.79013283),168,KENSINGTON,"3031"
7923,"160d7776","155321b6",Beverages,-37.78192283,144.92796295,POINT (144.92796295 -37.78192283),100,FLEMINGTON,"3031"
6659,"62375bf9","08159b4b",Beverages,-37.78173083,144.92963695,POINT (144.92963695 -37.78173083),702,FLEMINGTON,"3031"
4800,b775fb0c,"",Korean,-37.83780416,144.94159838,POINT (144.94159838 -37.83780416),104,PORT MELBOURNE,"3207"
22994,"5b22416c","",Indian,-37.83331184,144.93844494,POINT (144.93844494 -37.83331184),488,PORT MELBOURNE,"3207"
3774,"3f41ad92",f471fc0e,Indian,-37.84211084,144.98817793,POINT (144.98817793 -37.84211084),547,SOUTH YARRA,"3141"
10090,"57ff5684","",Japanese,-37.84200684,144.98733993,POINT (144.98733993 -37.84200684),311,SOUTH YARRA,"3141"
7819,"8fc0d3c4","",Japanese,-37.84092584,144.95963093,POINT (144.95963093 -37.84092584),470,SOUTH MELBOURNE,"3205"
19971,"2a9ab195",a21f5c0d,Chinese,-37.83645355,144.95633423,POINT (144.95633423 -37.83645355),472,SOUTH MELBOURNE,"3205"
7399,"8e4a8b23","",Indian,-37.83611702,144.95612820,POINT (144.9561282 -37.83611702),732,SOUTH MELBOURNE,"3205"
16368,a10161e8,e9eda3da,Indian,-37.83298012,144.95522430,POINT (144.9552243 -37.83298012),731,SOUTH MELBOURNE,"3205"
2954,"59d2d4b9","",Japanese,-37.83188084,144.95421194,POINT (144.95421194 -37.83188084),622,SOUTH MELBOURNE,"3205"
2370,"98858915","80e5ab1d",Indian,-37.82961198,144.95312593,POINT (144.95312593 -37.82961198),932,SOUTH MELBOURNE,"3205"
5854,"44ce33d7","3ae08d0c",Snacks,-37.78556883,144.92930395,POINT (144.92930395 -37.78556883),247,FLEMINGTON,"3031"
14353,fe25bc0f,"",Japanese,-37.84233203,144.99322685,POINT (144.99322685 -37.84233203),152,SOUTH YARRA,"3141"
18599,"0e69c56d","4bfa0362",Western,-37.79595819,144.94979650,POINT (144.9497965 -37.79595819),567,NORTH MELBOURNE,"3051"
15709,"21720376",bf77fa50,Western,-37.79137984,144.94388794,POINT (144.94388794 -37.79137984),130,NORTH MELBOURNE,"3051"
18007,b806ecfb,"",Western,-37.79084484,144.94338494,POINT (144.94338494 -37.79084484),235,NORTH MELBOURNE,"3051"
3688,aa135031,e9eda3da,Indian,-37.79039888,144.94161729,POINT (144.94161729 -37.79039888),779,NORTH MELBOURNE,"3051"
18124,c60c2918,"",Snacks,-37.79024929,144.94168068,POINT (144.94168068 -37.79024929),866,NORTH MELBOURNE,"3051"
11118,"78f817e8","73d8be05",Japanese,-37.79017837,144.94195340,POINT (144.9419534 -37.79017837),625,NORTH MELBOURNE,"3051"
15891,cf4fd7eb,"0e3a5e68",Beverages,-37.78859986,144.94177862,POINT (144.94177862 -37.78859986),864,PARKVILLE,"3052"
22677,"528a2dc8",a21f5c0d,Chinese,-37.82028130,144.95499689,POINT (144.95499689 -37.8202813),383,MELBOURNE,"3000"
12229,c57b9c8e,"16ef5978",Japanese,-37.81570237,144.97003867,POINT (144.97003867 -37.81570237),36,MELBOURNE,"3000"
9058,dd22cd92,"",Indian,-37.81540956,144.96752060,POINT (144.9675206 -37.81540956),746,MELBOURNE,"3000"
22493,"05ee5355","5a3894f2",Western,-37.82147154,144.95282718,POINT (144.95282718 -37.82147154),239,DOCKLANDS,"3008"
6038,ccd0c09c,"7beb4197",Beverages,-37.81924074,144.96046722,POINT (144.96046722 -37.81924074),309,MELBOURNE,"3000"
20396,"927dc982","",Desserts,-37.81916063,144.95847276,POINT (144.95847276 -37.81916063),677,MELBOURNE,"3000"
20112,"47fefbb7",c0c3e744,Indian,-37.81833184,144.96365294,POINT (144.96365294 -37.81833184),693,MELBOURNE,"3000"
17389,"5a392d55","",Indian,-37.81775292,144.96718790,POINT (144.9671879 -37.81775292),581,MELBOURNE,"3000"
17098,a8af9fa5,"9ad7e371",Indian,-37.83793420,144.94028460,POINT (144.9402846 -37.8379342),496,PORT MELBOURNE,"3207"
19870,"18a59a65","",Korean,-37.85503773,145.01046842,POINT (145.01046842 -37.85503773),386,PRAHRAN,"3181"
15883,cf83ed09,"96807ba2",Snacks,-37.85487884,145.01083492,POINT (145.01083492 -37.85487884),8,PRAHRAN,"3181"
54,a3754ed6,"",Indian,-37.80686494,144.93170060,POINT (144.9317006 -37.80686494),54,WEST MELBOURNE,"3003"
10263,"58ec3ba5",cc8548a4,Korean,-37.80677288,144.91262703,POINT (144.91262703 -37.80677288),658,WEST MELBOURNE,"3003"
17375,"46c13a47","4bfa0362",Western,-37.84825484,145.00071393,POINT (145.00071393 -37.84825484),474,PRAHRAN,"3181"
2804,fd4dccd2,a6dcdf34,Beverages,-37.80908264,144.95828192,POINT (144.95828192 -37.80908264),22,MELBOURNE,"3000"
20799,eb730190,"519a1642",Western,-37.79487468,144.92324885,POINT (144.92324885 -37.79487468),405,KENSINGTON,"3031"
5275,"791a5823","",Japanese,-37.80462589,144.95332762,POINT (144.95332762 -37.80462589),190,NORTH MELBOURNE,"3051"
10640,"0c99c1a8","",Snacks,-37.79170286,144.91992333,POINT (144.91992333 -37.79170286),393,KENSINGTON,"3031"
7886,ebf0e75a,ed078b25,Desserts,-37.79404587,144.95468589,POINT (144.95468589 -37.79404587),280,PARKVILLE,"3052"
15076,"8bee06a8","",Indian,-37.81534784,144.98773493,POINT (144.98773493 -37.81534784),571,EAST MELBOURNE,"3002"
8373,"91dfc767","",Snacks,-37.79073300,144.92231762,POINT (144.92231762 -37.790733),180,KENSINGTON,"3031"
3146,"786532d3","",Snacks,-37.81311784,144.98539893,POINT (144.98539893 -37.81311784),712,EAST MELBOURNE,"3002"
12470,ddb363b5,"",Desserts,-37.81300584,144.98728693,POINT (144.98728693 -37.81300584),443,EAST MELBOURNE,"3002"
5833,c348b869,"",Indian,-37.82662983,144.94231279,POINT (144.94231279 -37.82662983),51,SOUTH MELBOURNE,"3205"
16798,"9b795327","",Indian,-37.82914127,144.95093475,POINT (144.95093475 -37.82914127),203,SOUTHBANK,"3006"
7670,"09f9d83a","8e3ccee7",Snacks,-37.83128774,144.94740989,POINT (144.94740989 -37.83128774),690,SOUTH MELBOURNE,"3205"
13826,"511dc991","",Snacks,-37.85563049,145.00338899,POINT (145.00338899 -37.85563049),125,PRAHRAN,"3181"
1018,"22b5b65e",acdf9bdd,Indian,-37.79085783,144.92716895,POINT (144.92716895 -37.79085783),505,KENSINGTON,"3031"
5878,"6e5fb760","",Southeast Asian,-37.79483884,144.92965794,POINT (144.92965794 -37.79483884),52,KENSINGTON,"3031"
18144,e5218236,"",Indian,-37.79481284,144.92914817,POINT (144.92914817 -37.79481284),928,KENSINGTON,"3031"
16688,f880c7a7,"",Indian,-37.79289723,144.92169525,POINT (144.92169525 -37.79289723),812,KENSINGTON,"3031"
18383,"1324e25d","",Vegetarian,-37.84257281,144.94529593,POINT (144.94529593 -37.84257281),487,PORT MELBOURNE,"3207"
17903,"6a50b6ff","220232fe",Japanese,-37.84100784,144.94158294,POINT (144.94158294 -37.84100784),674,PORT MELBOURNE,"3207"
21060,"398b9bd2","1c70c3d9",Healthy,-37.84069884,144.94193294,POINT (144.94193294 -37.84069884),15,PORT MELBOURNE,"3207"
1390,b3b09c5c,"",Snacks,-37.83658584,144.93603594,POINT (144.93603594 -37.83658584),248,PORT MELBOURNE,"3207"
10783,db9954c8,"",Western,-37.83507823,144.93394984,POINT (144.93394984 -37.83507823),880,PORT MELBOURNE,"3207"
8938,"2b92f3db","",Indian,-37.83424784,144.93379494,POINT (144.93379494 -37.83424784),391,PORT MELBOURNE,"3207"
1657,"34bb7908","25d54c8e",Indian,-37.83420884,144.93309094,POINT (144.93309094 -37.83420884),716,PORT MELBOURNE,"3207"
461,"382347b2","8dc94713",Beverages,-37.85279835,145.00769802,POINT (145.00769802 -37.85279835),381,PRAHRAN,"3181"
14266,bd7ed93f,"",Western,-37.79933418,144.95606870,POINT (144.9560687 -37.79933418),790,PARKVILLE,"3052"
130,b38da303,"2e50ca91",Indian,-37.79843456,144.96213365,POINT (144.96213365 -37.79843456),194,PARKVILLE,"3052"
3456,fc968552,"10940d7c",Indian,-37.79149979,144.92117106,POINT (144.92117106 -37.79149979),775,KENSINGTON,"3031"
13367,"1eebc298","",Indian,-37.84895784,144.98805993,POINT (144.98805993 -37.84895784),678,PRAHRAN,"3181"
14387,"8d89f376","",Indian,-37.84874184,144.98856593,POINT (144.98856593 -37.84874184),85,PRAHRAN,"3181"
12090,e5968d8b,"",Indian,-37.84871884,144.98620293,POINT (144.98620293 -37.84871884),257,PRAHRAN,"3181"
1645,fd19286f,"",Indian,-37.81254184,144.99019693,POINT (144.99019693 -37.81254184),299,EAST MELBOURNE,"3002"
22066,da3c5fc3,"",Indian,-37.81233684,144.98822593,POINT (144.98822593 -37.81233684),112,EAST MELBOURNE,"3002"
3609,e82d837f,"",Snacks,-37.81230484,144.98788593,POINT (144.98788593 -37.81230484),862,EAST MELBOURNE,"3002"
13118,fa2d2a72,ab87ae8b,Western,-37.81125355,144.98806241,POINT (144.98806241 -37.81125355),458,EAST MELBOURNE,"3002"
16568,"17cce7db","79eb5158",Japanese,-37.79884952,144.94816063,POINT (144.94816063 -37.79884952),558,NORTH MELBOURNE,"3051"
20283,"8c8b4806","",Snacks,-37.79864484,144.94988094,POINT (144.94988094 -37.79864484),605,NORTH MELBOURNE,"3051"
6023,f8b2a733,"",Beverages,-37.79537389,144.93234033,POINT (144.93234033 -37.79537389),518,KENSINGTON,"3031"
11640,d7f337a6,"76aa1438",Indian,-37.79536484,144.93225988,POINT (144.93225988 -37.79536484),367,KENSINGTON,"3031"
18841,"1317bacc","04df3705",Desserts,-37.79534209,144.93208608,POINT (144.93208608 -37.79534209),774,KENSINGTON,"3031"
15380,e6418366,"",Western,-37.79745824,144.95013717,POINT (144.95013717 -37.79745824),177,NORTH MELBOURNE,"3051"
10400,"83ea775e","347a72c5",Indian,-37.85342377,145.01112243,POINT (145.01112243 -37.85342377),734,PRAHRAN,"3181"
13500,"8135bcf8",fd4e857f,Beverages,-37.84230084,145.00245393,POINT (145.00245393 -37.84230084),583,SOUTH YARRA,"3141"
20475,"3a855766","",Desserts,-37.84312684,145.00179893,POINT (145.00179893 -37.84312684),155,SOUTH YARRA,"3141"
3985,b25846e2,"",Indian,-37.81419339,144.99028854,POINT (144.99028854 -37.81419339),416,EAST MELBOURNE,"3002"
12522,"31ad4f49","5a3894f2",Western,-37.83516216,144.94479131,POINT (144.94479131 -37.83516216),516,PORT MELBOURNE,"3207"
20370,e0349968,"",Western,-37.83505084,144.96592893,POINT (144.96592893 -37.83505084),765,SOUTH MELBOURNE,"3205"
4789,b2fb67d6,"",Southeast Asian,-37.79525083,144.92693194,POINT (144.92693194 -37.79525083),382,KENSINGTON,"3031"
10655,"6ad07dd1",a6dcdf34,Beverages,-37.79991150,144.95388682,POINT (144.95388682 -37.7999115),58,NORTH MELBOURNE,"3051"
21344,"8d931754",adcaab08,Western,-37.85415919,145.00929806,POINT (145.00929806 -37.85415919),785,PRAHRAN,"3181"
6078,e442e746,a7f5aa77,Western,-37.85386608,145.00708412,POINT (145.00708412 -37.85386608),717,PRAHRAN,"3181"
16269,"96206563","",Western,-37.85343584,145.00386193,POINT (145.00386193 -37.85343584),736,PRAHRAN,"3181"
12147,"295daca3","",Western,-37.85326784,145.00510493,POINT (145.00510493 -37.85326784),740,PRAHRAN,"3181"
2890,"51e85cdf","",Indian,-37.85314484,145.00425593,POINT (145.00425593 -37.85314484),800,PRAHRAN,"3181"
5252,"1e65656a","",Indian,-37.85304084,145.00339493,POINT (145.00339493 -37.85304084),376,PRAHRAN,"3181"
13117,a6b0135a,f5acc54f,Chinese,-37.85203984,144.99598893,POINT (144.99598893 -37.85203984),817,PRAHRAN,"3181"
9358,"252c87e1","",Indian,-37.85498884,145.00740465,POINT (145.00740465 -37.85498884),244,PRAHRAN,"3181"
17021,"81fdbeef","",Snacks,-37.84653091,145.00129978,POINT (145.00129978 -37.84653091),861,SOUTH YARRA,"3141"
4874,b89fe3c3,"",Vegetarian,-37.81537884,144.99008593,POINT (144.99008593 -37.81537884),759,EAST MELBOURNE,"3002"
15631,"4a16cd7d","",Southeast Asian,-37.81375284,144.99036793,POINT (144.99036793 -37.81375284),604,EAST MELBOURNE,"3002"
18653,"8054f463","",Indian,-37.78719136,144.93527800,POINT (144.935278 -37.78719136),241,FLEMINGTON,"3031"
5905,"199707b2","4f547c83",Western,-37.83656184,144.97936393,POINT (144.97936393 -37.83656184),773,SOUTH YARRA,"3141"
10602,"364e1a96","0b01c70f",Indian,-37.83635077,144.97908567,POINT (144.97908567 -37.83635077),753,SOUTH YARRA,"3141"
16494,fb403a45,"",Indian,-37.83456273,144.97962476,POINT (144.97962476 -37.83456273),922,SOUTH YARRA,"3141"
15251,cebe1c7a,"785bc0ef",International,-37.83442567,144.97965194,POINT (144.97965194 -37.83442567),46,SOUTH YARRA,"3141"
13995,"6798c401","03511d31",Indian,-37.79185883,144.92721995,POINT (144.92721995 -37.79185883),444,KENSINGTON,"3031"
22133,"85e8ce18","170b679a",Japanese,-37.79181583,144.92634695,POINT (144.92634695 -37.79181583),442,KENSINGTON,"3031"
22662,aae749d2,"",Japanese,-37.81424384,144.98850293,POINT (144.98850293 -37.81424384),782,EAST MELBOURNE,"3002"
14702,"4f607f40",fd4e857f,Beverages,-37.81400984,144.98641993,POINT (144.98641993 -37.81400984),897,EAST MELBOURNE,"3002"
5013,e0d83ce9,"30e1c5c3",Indian,-37.81388284,144.98530993,POINT (144.98530993 -37.81388284),802,EAST MELBOURNE,"3002"
9591,c52dc5bf,"687826f9",Chinese,-37.81386264,144.98517443,POINT (144.98517443 -37.81386264),848,EAST MELBOURNE,"3002"
3566,"18f0cfac","",Korean,-37.83273084,144.95841394,POINT (144.95841394 -37.83273084),886,SOUTH MELBOURNE,"3205"
11316,"53c6c67f","",Healthy,-37.80525884,144.95401394,POINT (144.95401394 -37.80525884),262,NORTH MELBOURNE,"3051"
19058,"32d18472","",Indian,-37.80507088,144.95404225,POINT (144.95404225 -37.80507088),797,NORTH MELBOURNE,"3051"
10905,"191d53d4","2e50ca91",Indian,-37.80420853,144.95420234,POINT (144.95420234 -37.80420853),632,NORTH MELBOURNE,"3051"
22704,e36ffa0d,"",Healthy,-37.80393285,144.95372423,POINT (144.95372423 -37.80393285),544,NORTH MELBOURNE,"3051"
8523,da65867e,"",Indian,-37.80297746,144.95440669,POINT (144.95440669 -37.80297746),109,NORTH MELBOURNE,"3051"
7059,"640ff0be",ea6196fb,Indian,-37.80280349,144.95470933,POINT (144.95470933 -37.80280349),240,NORTH MELBOURNE,"3051"
7813,"970a2707",d4474d04,Snacks,-37.83883862,144.95924394,POINT (144.95924394 -37.83883862),795,SOUTH MELBOURNE,"3205"
18650,"4884306e","",Indian,-37.83682324,144.95887000,POINT (144.95887 -37.83682324),460,SOUTH MELBOURNE,"3205"
7349,b658f001,"",Indian,-37.83661328,144.95820100,POINT (144.958201 -37.83661328),347,SOUTH MELBOURNE,"3205"
6282,bcecedea,"9f52af27",Beverages,-37.83672883,144.92421494,POINT (144.92421494 -37.83672883),82,PORT MELBOURNE,"3207"
4742,b3f14e63,"",Indian,-37.83645784,144.92776694,POINT (144.92776694 -37.83645784),103,PORT MELBOURNE,"3207"
13501,"72effb84","70f1c817",Western,-37.83632083,144.91946494,POINT (144.91946494 -37.83632083),506,PORT MELBOURNE,"3207"
19361,"7773176c","",Indian,-37.84705944,145.00180172,POINT (145.00180172 -37.84705944),616,SOUTH YARRA,"3141"
5663,"86454d10","",Desserts,-37.84692344,145.00307162,POINT (145.00307162 -37.84692344),834,SOUTH YARRA,"3141"
1979,"5d32d454","",Indian,-37.84678575,145.00208900,POINT (145.002089 -37.84678575),938,SOUTH YARRA,"3141"
4067,e51cb26f,"2c72121b",Snacks,-37.84459684,144.98863293,POINT (144.98863293 -37.84459684),598,SOUTH YARRA,"3141"
19318,e3ef67a2,"",Snacks,-37.78145784,144.95892821,POINT (144.95892821 -37.78145784),45,PARKVILLE,"3052"
4546,e092ebc9,"",Beverages,-37.81998241,144.94455369,POINT (144.94455369 -37.81998241),639,DOCKLANDS,"3008"
8467,"680da113","34a3dfd7",Snacks,-37.80766484,144.94493494,POINT (144.94493494 -37.80766484),700,WEST MELBOURNE,"3003"
15016,"6e8647a6",bcd52045,Indian,-37.80753939,144.94417510,POINT (144.9441751 -37.80753939),853,WEST MELBOURNE,"3003"
16648,"014cef88",ec62e7f5,Beverages,-37.80738484,144.94515194,POINT (144.94515194 -37.80738484),877,WEST MELBOURNE,"3003"
21046,"4dac8097",a6dcdf34,Beverages,-37.80730988,144.94496188,POINT (144.94496188 -37.80730988),921,WEST MELBOURNE,"3003"
16086,"8acdf3ce","",Indian,-37.85756303,145.00701280,POINT (145.0070128 -37.85756303),65,PRAHRAN,"3181"
20611,"55c280d8","",Indian,-37.85140084,144.99916593,POINT (144.99916593 -37.85140084),475,PRAHRAN,"3181"
22810,d6b4ddf5,"",Indian,-37.84825377,144.99194178,POINT (144.99194178 -37.84825377),962,PRAHRAN,"3181"
5281,"9ddf292c","",Indian,-37.82954642,144.94313456,POINT (144.94313456 -37.82954642),243,PORT MELBOURNE,"3207"
22509,a308d96b,"",Western,-37.85673584,145.00340892,POINT (145.00340892 -37.85673584),498,PRAHRAN,"3181"
13919,"8d2030f8","",Indian,-37.84440310,144.94252633,POINT (144.94252633 -37.8444031),778,PORT MELBOURNE,"3207"
16629,"4daa2fc5","",Indian,-37.82454269,144.96321703,POINT (144.96321703 -37.82454269),433,SOUTHBANK,"3006"
20736,"4d5e2085","",Desserts,-37.79545084,144.97363594,POINT (144.97363594 -37.79545084),20,CARLTON,"3053"
9673,"6187e5f9","",Healthy,-37.79483384,144.97180194,POINT (144.97180194 -37.79483384),636,CARLTON,"3053"
8603,"6c60369c","6e2696eb",Japanese,-37.79646492,144.92361537,POINT (144.92361537 -37.79646492),497,KENSINGTON,"3031"
10148,"8780c795","8dc94713",Beverages,-37.79611942,144.92389152,POINT (144.92389152 -37.79611942),810,KENSINGTON,"3031"
22160,c0c7a838,"",Indian,-37.79540006,144.92513428,POINT (144.92513428 -37.79540006),305,KENSINGTON,"3031"
20512,"87df1329",a2e97632,Southeast Asian,-37.79464183,144.92714194,POINT (144.92714194 -37.79464183),491,KENSINGTON,"3031"
10991,b7bd7681,"",Indian,-37.83872227,145.00133848,POINT (145.00133848 -37.83872227),334,SOUTH YARRA,"3141"
12980,"61f998e7","",Beverages,-37.83754584,145.00176993,POINT (145.00176993 -37.83754584),503,SOUTH YARRA,"3141"
7591,"8515ef55","",Indian,-37.83504284,145.00230093,POINT (145.00230093 -37.83504284),644,SOUTH YARRA,"3141"
19618,cd01110a,"",Indian,-37.83488984,145.00229393,POINT (145.00229393 -37.83488984),418,SOUTH YARRA,"3141"
20032,d4ae3bc8,"31e955c2",Beverages,-37.83486186,145.00190929,POINT (145.00190929 -37.83486186),645,SOUTH YARRA,"3141"
2266,ab8255b0,"5591a964",Japanese,-37.79410171,144.96598733,POINT (144.96598733 -37.79410171),354,CARLTON,"3053"
8922,"507ab23e","",Hong Kong Style,-37.81526983,144.95494209,POINT (144.95494209 -37.81526983),290,MELBOURNE,"3000"
15343,"169c2015",ea6196fb,Indian,-37.80809784,144.95220294,POINT (144.95220294 -37.80809784),696,WEST MELBOURNE,"3003"
20986,"0f40ad80",e649ba9a,Japanese,-37.80604219,144.94913298,POINT (144.94913298 -37.80604219),872,WEST MELBOURNE,"3003"
11915,"8971307b","7375776a",Western,-37.83370913,144.96756321,POINT (144.96756321 -37.83370913),213,SOUTH MELBOURNE,"3205"
22856,c4d96635,"",Indian,-37.85674941,145.00952390,POINT (145.0095239 -37.85674941),228,PRAHRAN,"3181"
13131,"5112774c","71b0e2cb",Snacks,-37.83740584,144.94223994,POINT (144.94223994 -37.83740584),90,PORT MELBOURNE,"3207"
18908,"26f1889b","",Chinese,-37.79038970,144.93445904,POINT (144.93445904 -37.7903897),689,KENSINGTON,"3031"
9054,"3eda68ed","707e8340",Japanese,-37.84145884,144.98850293,POINT (144.98850293 -37.84145884),675,SOUTH YARRA,"3141"
15764,"05d55fc0","9c65d566",Beverages,-37.85742684,145.00910692,POINT (145.00910692 -37.85742684),408,PRAHRAN,"3181"
13057,"4745dede","",Snacks,-37.85702784,145.00841292,POINT (145.00841292 -37.85702784),116,PRAHRAN,"3181"
21594,"2f5577ef","",Indian,-37.81230974,144.95521689,POINT (144.95521689 -37.81230974),268,MELBOURNE,"3000"
16930,"022a5619","70ccdea9",Snacks,-37.81103445,144.95962532,POINT (144.95962532 -37.81103445),99,MELBOURNE,"3000"
1515,"9ff282c9","",Snacks,-37.80790805,144.97115643,POINT (144.97115643 -37.80790805),828,MELBOURNE,"3000"
15839,"75c61a06",f8a7bade,Japanese,-37.80743378,144.96423422,POINT (144.96423422 -37.80743378),857,MELBOURNE,"3000"
22611,"93663576","",Western,-37.83318390,144.96630978,POINT (144.96630978 -37.8331839),672,SOUTH MELBOURNE,"3205"
22670,fc3af38b,"",Indian,-37.83378632,144.99062991,POINT (144.99062991 -37.83378632),796,SOUTH YARRA,"3141"
11275,dcd3f663,"7c8c4f32",Snacks,-37.84921526,144.99857200,POINT (144.998572 -37.84921526),236,PRAHRAN,"3181"
8638,bec27b9b,"",Indian,-37.83547584,144.98324493,POINT (144.98324493 -37.83547584),98,SOUTH YARRA,"3141"
14950,"99a0cd88","061944a1",Western,-37.80251944,144.95096034,POINT (144.95096034 -37.80251944),556,NORTH MELBOURNE,"3051"
16366,a361d72d,"",Healthy,-37.85870984,145.00825692,POINT (145.00825692 -37.85870984),352,PRAHRAN,"3181"
2839,"98ea143d","",Indian,-37.78974683,144.92594595,POINT (144.92594595 -37.78974683),151,KENSINGTON,"3031"
2944,bd35a631,"55615920",Snacks,-37.79610683,144.92326295,POINT (144.92326295 -37.79610683),906,KENSINGTON,"3031"
17089,"4a3c03eb","5a3894f2",Western,-37.81359432,144.96191279,POINT (144.96191279 -37.81359432),870,MELBOURNE,"3000"
5089,c88a5726,"0765ec3c",Japanese,-37.81271333,144.96498615,POINT (144.96498615 -37.81271333),43,MELBOURNE,"3000"
4365,"98df8918","",Indian,-37.81266792,144.96656322,POINT (144.96656322 -37.81266792),164,MELBOURNE,"3000"
13067,c9bb86a9,"4b01ebbd",Beverages,-37.81118515,144.96936014,POINT (144.96936014 -37.81118515),210,MELBOURNE,"3000"
8731,a0cab3fa,"3e2d7631",Snacks,-37.84750684,144.99479293,POINT (144.99479293 -37.84750684),500,PRAHRAN,"3181"
17915,"994f943b","",Snacks,-37.81561699,144.96273639,POINT (144.96273639 -37.81561699),899,MELBOURNE,"3000"
48,"4d1635ef","",Vegetarian,-37.81281111,144.97319305,POINT (144.97319305 -37.81281111),188,MELBOURNE,"3000"
18432,"95159b45","",Western,-37.80190816,144.94437564,POINT (144.94437564 -37.80190816),966,NORTH MELBOURNE,"3051"
7810,"1036d363","9ec61b23",Indian,-37.83967584,144.94992694,POINT (144.94992694 -37.83967584),536,SOUTH MELBOURNE,"3205"
21146,ee92b063,"08159b4b",Beverages,-37.83956284,144.94963394,POINT (144.94963394 -37.83956284),955,SOUTH MELBOURNE,"3205"
11043,d8e03410,"",Hong Kong Style,-37.83476973,144.94878228,POINT (144.94878228 -37.83476973),67,PORT MELBOURNE,"3207"
12990,de8d0175,"",Western,-37.83474367,144.94883611,POINT (144.94883611 -37.83474367),110,PORT MELBOURNE,"3207"
13571,"15731717","",Indian,-37.80975817,144.96773850,POINT (144.9677385 -37.80975817),215,MELBOURNE,"3000"
19950,eb9f7d74,"4b01ebbd",Beverages,-37.80360852,144.94498270,POINT (144.9449827 -37.80360852),16,NORTH MELBOURNE,"3051"
13825,a8ca065e,"",Desserts,-37.83786760,144.94940370,POINT (144.9494037 -37.8378676),341,SOUTH MELBOURNE,"3205"
2791,ea86535d,"",Chinese,-37.83752484,144.94905494,POINT (144.94905494 -37.83752484),682,SOUTH MELBOURNE,"3205"
12204,"4d892a9a","0141731f",Snacks,-37.79670341,144.96992288,POINT (144.96992288 -37.79670341),349,CARLTON,"3053"
17600,"2906e305","",Indian,-37.83641502,144.98125423,POINT (144.98125423 -37.83641502),220,SOUTH YARRA,"3141"
6883,f774af30,"",Snacks,-37.80437402,144.96446043,POINT (144.96446043 -37.80437402),26,CARLTON,"3053"
16334,"0bc015d4","",Snacks,-37.83864084,144.94845494,POINT (144.94845494 -37.83864084),135,SOUTH MELBOURNE,"3205"
2113,c0d37aa3,"347a72c5",Indian,-37.81126228,144.97142557,POINT (144.97142557 -37.81126228),764,MELBOURNE,"3000"
20969,"5fe79461","",Indian,-37.81158486,144.96539198,POINT (144.96539198 -37.81158486),648,MELBOURNE,"3000"
19926,"31f54c5d","",Western,-37.81116331,144.96707334,POINT (144.96707334 -37.81116331),285,MELBOURNE,"3000"
20331,"07c449dc","",Indian,-37.85035584,145.00612693,POINT (145.00612693 -37.85035584),79,PRAHRAN,"3181"
11185,"02c30eca",c572c916,Western,-37.84904384,145.00632093,POINT (145.00632093 -37.84904384),5,PRAHRAN,"3181"
12918,ac85b2cb,"4fc15949",Snacks,-37.83637384,144.95126794,POINT (144.95126794 -37.83637384),227,SOUTH MELBOURNE,"3205"
19598,f237b35c,"",Indian,-37.79997484,144.96734594,POINT (144.96734594 -37.79997484),446,CARLTON,"3053"
786,"675a86cb",b2bc000d,Vegetarian,-37.79993027,144.96734729,POINT (144.96734729 -37.79993027),327,CARLTON,"3053"
7490,de592f94,bd05cbb3,Indian,-37.79908709,144.96687024,POINT (144.96687024 -37.79908709),169,CARLTON,"3053"
5418,"84f08fcc","2e50ca91",Indian,-37.79339757,144.96794611,POINT (144.96794611 -37.79339757),89,CARLTON,"3053"
6968,af917163,"",Western,-37.79863686,144.97101911,POINT (144.97101911 -37.79863686),329,CARLTON,"3053"
15072,"817981e4","",Desserts,-37.79489973,144.93284573,POINT (144.93284573 -37.79489973),887,KENSINGTON,"3031"
6368,a563a4d2,"9fb6df86",Japanese,-37.79537485,144.93703662,POINT (144.93703662 -37.79537485),10,NORTH MELBOURNE,"3051"
22859,a74d9bf3,"",Chinese,-37.83968984,144.98853893,POINT (144.98853893 -37.83968984),316,SOUTH YARRA,"3141"
1602,ac3837d9,"80924b01",Indian,-37.81365403,144.90832446,POINT (144.90832446 -37.81365403),594,WEST MELBOURNE,"3003"
19064,"7468921a","103c7f3e",Snacks,-37.84903884,145.00924192,POINT (145.00924192 -37.84903884),821,PRAHRAN,"3181"
21717,"12622768","",Indian,-37.84738584,144.99679693,POINT (144.99679693 -37.84738584),601,PRAHRAN,"3181"
11946,fc8736d2,"",Indian,-37.84676404,144.99464355,POINT (144.99464355 -37.84676404),669,SOUTH YARRA,"3141"
17570,a9842d58,"",Indian,-37.77761990,144.93876995,POINT (144.93876995 -37.7776199),117,PARKVILLE,"3052"
1361,"1044c120","5591a964",Japanese,-37.78557946,144.94158766,POINT (144.94158766 -37.78557946),806,PARKVILLE,"3052"
8864,d49095d1,"88b0b329",Snacks,-37.84472384,144.98706193,POINT (144.98706193 -37.84472384),559,SOUTH YARRA,"3141"
2315,"97f0b2c1","11cb372c",Snacks,-37.79431087,144.93761724,POINT (144.93761724 -37.79431087),787,NORTH MELBOURNE,"3051"
11320,"7114d74b","5ab62ab3",Desserts,-37.79393922,144.93774168,POINT (144.93774168 -37.79393922),608,NORTH MELBOURNE,"3051"
6148,"33a2a6fd","70f1c817",Western,-37.79041066,144.92555043,POINT (144.92555043 -37.79041066),739,KENSINGTON,"3031"
17867,"9c73f32b","",Desserts,-37.79017129,144.92593825,POINT (144.92593825 -37.79017129),55,KENSINGTON,"3031"
21526,"06277db4","",Western,-37.79015218,144.92641304,POINT (144.92641304 -37.79015218),606,KENSINGTON,"3031"
9261,c961583f,"8dc94713",Beverages,-37.78942183,144.92718795,POINT (144.92718795 -37.78942183),973,KENSINGTON,"3031"
7392,"673d8d17","5e132ece",Beverages,-37.78649583,144.92562095,POINT (144.92562095 -37.78649583),905,FLEMINGTON,"3031"
7130,ee991bbc,"",Japanese,-37.78619383,144.92539095,POINT (144.92539095 -37.78619383),656,FLEMINGTON,"3031"
16784,"1c469cb4","7375776a",Western,-37.78159584,144.93141295,POINT (144.93141295 -37.78159584),565,FLEMINGTON,"3031"
12424,"1a258a61","4e008aca",Indian,-37.79290283,144.91982295,POINT (144.91982295 -37.79290283),534,KENSINGTON,"3031"
3813,"88083631","4b01ebbd",Beverages,-37.79382024,144.92907369,POINT (144.92907369 -37.79382024),3,KENSINGTON,"3031"
8715,"31dcb986","3b8b7969",Desserts,-37.79376639,144.92908654,POINT (144.92908654 -37.79376639),31,KENSINGTON,"3031"
21019,"9bb8ff90","92005371",Indian,-37.79080783,144.92846495,POINT (144.92846495 -37.79080783),859,KENSINGTON,"3031"
6894,"3c34accc","2e50ca91",Indian,-37.83750037,144.94656548,POINT (144.94656548 -37.83750037),485,PORT MELBOURNE,"3207"
6681,"1920ca3b","9f52af27",Beverages,-37.79335083,144.92751895,POINT (144.92751895 -37.79335083),395,KENSINGTON,"3031"
18945,"454c9fdc","",Indian,-37.79245903,144.92794710,POINT (144.9279471 -37.79245903),584,KENSINGTON,"3031"
5345,"50fb231b","",Southeast Asian,-37.79003583,144.92757795,POINT (144.92757795 -37.79003583),195,KENSINGTON,"3031"
8871,d0727013,"",Chinese,-37.78833223,144.92807215,POINT (144.92807215 -37.78833223),388,KENSINGTON,"3031"
3799,"3611c6b9","",Western,-37.84734196,145.00224076,POINT (145.00224076 -37.84734196),261,SOUTH YARRA,"3141"
7812,"6e2ca55a","",Beverages,-37.80012499,144.93081624,POINT (144.93081624 -37.80012499),63,KENSINGTON,"3031"
2910,c7c21ec5,"",Snacks,-37.79983609,144.92976415,POINT (144.92976415 -37.79983609),551,KENSINGTON,"3031"
7816,"0d2df86f","",Indian,-37.79564683,144.91932195,POINT (144.91932195 -37.79564683),33,KENSINGTON,"3031"
12474,"4cd8897c","",Desserts,-37.79263543,144.92217955,POINT (144.92217955 -37.79263543),697,KENSINGTON,"3031"
19378,b6d0a38f,b6620d07,Japanese,-37.84328670,144.99394755,POINT (144.99394755 -37.8432867),160,SOUTH YARRA,"3141"
1765,b2968d43,"",Indian,-37.84324504,144.99395997,POINT (144.99395997 -37.84324504),724,SOUTH YARRA,"3141"
4801,a66c412b,"",Vegetarian,-37.79549729,144.94197328,POINT (144.94197328 -37.79549729),380,NORTH MELBOURNE,"3051"
20373,"56f6cd50","4bfa0362",Western,-37.79538039,144.94198788,POINT (144.94198788 -37.79538039),794,NORTH MELBOURNE,"3051"
11337,edf0a36d,"8dc94713",Beverages,-37.81638508,144.98724364,POINT (144.98724364 -37.81638508),883,EAST MELBOURNE,"3002"
10777,"0325a93b","",Indian,-37.79676483,144.92185295,POINT (144.92185295 -37.79676483),27,KENSINGTON,"3031"
14665,"774ef12d","14ee0851",Snacks,-37.79538648,144.92000135,POINT (144.92000135 -37.79538648),811,KENSINGTON,"3031"
22276,"72c41ea4","3823147c",Indian,-37.84198972,144.93803454,POINT (144.93803454 -37.84198972),191,PORT MELBOURNE,"3207"
17598,"5c5693a1",de882899,Japanese,-37.84457084,144.98603193,POINT (144.98603193 -37.84457084),781,SOUTH YARRA,"3141"
22174,"6a542e32","",Indian,-37.79796884,144.94885494,POINT (144.94885494 -37.79796884),705,NORTH MELBOURNE,"3051"
7797,"211128e8","",Indian,-37.79744384,144.94819894,POINT (144.94819894 -37.79744384),258,NORTH MELBOURNE,"3051"
11248,"89041e78","25d54c8e",Indian,-37.79690084,144.94752094,POINT (144.94752094 -37.79690084),815,NORTH MELBOURNE,"3051"
20082,baf6db3e,"20b8620e",Healthy,-37.84960284,145.01113592,POINT (145.01113592 -37.84960284),612,PRAHRAN,"3181"
22782,"5747a5c9","",Snacks,-37.83722184,144.98632193,POINT (144.98632193 -37.83722184),711,SOUTH YARRA,"3141"
4266,"62f13ee4","10940d7c",Indian,-37.83718050,144.98596041,POINT (144.98596041 -37.8371805),397,SOUTH YARRA,"3141"
10177,"679266fb","",Chinese,-37.83758484,144.95456394,POINT (144.95456394 -37.83758484),634,SOUTH MELBOURNE,"3205"
14068,"2e82de10","",Hong Kong Style,-37.84466184,144.98925693,POINT (144.98925693 -37.84466184),575,SOUTH YARRA,"3141"
7211,"902971ec","",Indian,-37.82662534,144.96009621,POINT (144.96009621 -37.82662534),72,SOUTHBANK,"3006"
7459,e6648be3,"0765ec3c",Japanese,-37.83772584,144.96527593,POINT (144.96527593 -37.83772584),398,SOUTH MELBOURNE,"3205"
7140,"098774f1","",Indian,-37.83575484,144.96493193,POINT (144.96493193 -37.83575484),692,SOUTH MELBOURNE,"3205"
1756,"1c6df69d",a2347dff,Beverages,-37.83862484,144.93174094,POINT (144.93174094 -37.83862484),942,PORT MELBOURNE,"3207"
13025,"0c4817df","4bfa0362",Western,-37.79532084,144.95566194,POINT (144.95566194 -37.79532084),965,PARKVILLE,"3052"
4199,"6afb9e6b","",Indian,-37.79527884,144.95534494,POINT (144.95534494 -37.79527884),253,PARKVILLE,"3052"
8271,"3f06fd9d","",Indian,-37.84828184,144.98855593,POINT (144.98855593 -37.84828184),666,PRAHRAN,"3181"
4739,bdb7d0aa,ab87ae8b,Western,-37.85076184,144.99607993,POINT (144.99607993 -37.85076184),643,PRAHRAN,"3181"
12161,"1b1d9822","",Western,-37.78563803,144.93848995,POINT (144.93848995 -37.78563803),728,FLEMINGTON,"3031"
17450,"67d5c7e9","",Indian,-37.78334584,144.93513394,POINT (144.93513394 -37.78334584),852,FLEMINGTON,"3031"
13095,"5b502346","",Beverages,-37.79047684,144.93041894,POINT (144.93041894 -37.79047684),489,KENSINGTON,"3031"
22387,a07cdfa4,ab87ae8b,Western,-37.80173737,144.94296654,POINT (144.94296654 -37.80173737),233,NORTH MELBOURNE,"3051"
1613,"2f324d5c",e87251cb,Indian,-37.79981684,144.97384594,POINT (144.97384594 -37.79981684),343,CARLTON,"3053"
6394,ed62251f,fcd46084,Indian,-37.83829284,144.99012593,POINT (144.99012593 -37.83829284),751,SOUTH YARRA,"3141"
8818,f0d0cbea,"519a1642",Western,-37.83757684,144.99022193,POINT (144.99022193 -37.83757684),286,SOUTH YARRA,"3141"
6043,"1db38c28","9044f475",Indian,-37.83655084,144.99081793,POINT (144.99081793 -37.83655084),207,SOUTH YARRA,"3141"
7840,f398f82a,ed078b25,Desserts,-37.85027284,144.99855993,POINT (144.99855993 -37.85027284),50,PRAHRAN,"3181"
15012,b78d6e9b,"",Indian,-37.85023810,144.99842648,POINT (144.99842648 -37.8502381),264,PRAHRAN,"3181"
12159,c897d0f8,"",Indian,-37.83631384,144.96026893,POINT (144.96026893 -37.83631384),402,SOUTH MELBOURNE,"3205"
11803,c8eb92b6,"9f52af27",Beverages,-37.83661584,144.96052193,POINT (144.96052193 -37.83661584),652,SOUTH MELBOURNE,"3205"
5380,"1060d4c8","0b01c70f",Indian,-37.83659084,144.96061393,POINT (144.96061393 -37.83659084),360,SOUTH MELBOURNE,"3205"
11060,"4237ca75","339d934f",Western,-37.83753984,144.93091894,POINT (144.93091894 -37.83753984),96,PORT MELBOURNE,"3207"
16455,a45b9b61,"2e50ca91",Indian,-37.83977884,144.95118494,POINT (144.95118494 -37.83977884),435,SOUTH MELBOURNE,"3205"
2878,"72fe0c34",ea6196fb,Indian,-37.83933519,144.95062774,POINT (144.95062774 -37.83933519),537,SOUTH MELBOURNE,"3205"
22360,c1f612bb,"851619a5",Western,-37.83833484,144.95101594,POINT (144.95101594 -37.83833484),377,SOUTH MELBOURNE,"3205"
7358,fcf80dba,"",Indian,-37.83768084,144.95228894,POINT (144.95228894 -37.83768084),895,SOUTH MELBOURNE,"3205"
19606,"9a855ebb","2989cab3",Western,-37.83741484,144.95151194,POINT (144.95151194 -37.83741484),661,SOUTH MELBOURNE,"3205"
2323,"173cb790","",Western,-37.83467384,144.95196294,POINT (144.95196294 -37.83467384),219,SOUTH MELBOURNE,"3205"
8008,"0591fadd","",Japanese,-37.83368484,144.95105894,POINT (144.95105894 -37.83368484),881,SOUTH MELBOURNE,"3205"
21602,"4d4c4221","",Snacks,-37.78448989,144.92530598,POINT (144.92530598 -37.78448989),611,FLEMINGTON,"3031"
1414,a921c6dd,bd52542b,Snacks,-37.79641914,144.97487089,POINT (144.97487089 -37.79641914),302,CARLTON,"3053"
7999,"268fe319","4b01ebbd",Beverages,-37.84283284,144.99029493,POINT (144.99029493 -37.84283284),62,SOUTH YARRA,"3141"
12815,"4cf28c33",b9930d23,Indian,-37.84282384,144.98820393,POINT (144.98820393 -37.84282384),200,SOUTH YARRA,"3141"
9985,"96c4109a","",Desserts,-37.84246884,144.98748693,POINT (144.98748693 -37.84246884),424,SOUTH YARRA,"3141"
15939,"548a898e","4f18a361",International,-37.83514002,144.95134799,POINT (144.95134799 -37.83514002),322,SOUTH MELBOURNE,"3205"
7873,"66e19e80","",Chinese,-37.83713440,144.98718239,POINT (144.98718239 -37.8371344),624,SOUTH YARRA,"3141"
18850,ace5285b,a5fe814f,Japanese,-37.83134819,144.95599390,POINT (144.9559939 -37.83134819),73,SOUTH MELBOURNE,"3205"
7911,"40fb94b6","",Japanese,-37.78672440,144.92934182,POINT (144.92934182 -37.7867244),694,FLEMINGTON,"3031"
8745,d1bebc35,"",Snacks,-37.78710683,144.92961595,POINT (144.92961595 -37.78710683),403,FLEMINGTON,"3031"
16923,"44369672","1669633d",Korean,-37.83835784,144.94101994,POINT (144.94101994 -37.83835784),819,PORT MELBOURNE,"3207"
2123,e7d8a3d1,"",Snacks,-37.83812789,144.94123184,POINT (144.94123184 -37.83812789),664,PORT MELBOURNE,"3207"
12307,f8638c82,e7a666c7,Japanese,-37.83744384,144.94184094,POINT (144.94184094 -37.83744384),101,PORT MELBOURNE,"3207"
14383,"7e233914","83e10cca",Snacks,-37.83610152,144.94307929,POINT (144.94307929 -37.83610152),903,PORT MELBOURNE,"3207"
6059,ae5b8611,"",Southeast Asian,-37.83433984,144.94471094,POINT (144.94471094 -37.83433984),187,PORT MELBOURNE,"3207"
12187,e80564e6,"544b3882",Desserts,-37.78947588,144.93262440,POINT (144.9326244 -37.78947588),597,KENSINGTON,"3031"
3280,"3b447424","1c76b385",Desserts,-37.78912559,144.93269094,POINT (144.93269094 -37.78912559),684,KENSINGTON,"3031"
10576,"705cc0a3",a6dcdf34,Beverages,-37.77680869,144.94268490,POINT (144.9426849 -37.77680869),642,PARKVILLE,"3052"
9697,"4773d215","9f52af27",Beverages,-37.84469038,145.00276598,POINT (145.00276598 -37.84469038),29,SOUTH YARRA,"3141"
6552,"45eb2524","",Snacks,-37.84376084,145.00246293,POINT (145.00246293 -37.84376084),582,SOUTH YARRA,"3141"
8015,"7025b2cb","5a64ad7b",Western,-37.84298056,145.00298919,POINT (145.00298919 -37.84298056),940,SOUTH YARRA,"3141"
21015,"69bf3207",fef6267a,Japanese,-37.82404239,144.98137369,POINT (144.98137369 -37.82404239),879,MELBOURNE,"3000"
610,d8dfacc8,"0a8a3fcb",Japanese,-37.79656384,144.93033694,POINT (144.93033694 -37.79656384),237,KENSINGTON,"3031"
1231,"6036f69d","8e3ccee7",Snacks,-37.84325684,144.99086393,POINT (144.99086393 -37.84325684),298,SOUTH YARRA,"3141"
16325,"18e24ae4",ab87ae8b,Western,-37.84264084,144.99068693,POINT (144.99068693 -37.84264084),7,SOUTH YARRA,"3141"
19493,"3a49bb3d","",Western,-37.84097984,144.99739493,POINT (144.99739493 -37.84097984),140,SOUTH YARRA,"3141"
19977,"85cbd1a5","27e97f51",Indian,-37.85576284,145.00395792,POINT (145.00395792 -37.85576284),851,PRAHRAN,"3181"
15954,d6f89c42,a21f5c0d,Chinese,-37.83573184,144.92743594,POINT (144.92743594 -37.83573184),814,PORT MELBOURNE,"3207"
19286,eeb5d201,bd89622d,Chinese,-37.84167084,144.99670193,POINT (144.99670193 -37.84167084),562,SOUTH YARRA,"3141"
6489,"01fecd15","",Indian,-37.83592884,144.96718793,POINT (144.96718793 -37.83592884),81,SOUTH MELBOURNE,"3205"
3174,"60cc8e4e","",Desserts,-37.83572684,144.96768593,POINT (144.96768593 -37.83572684),426,SOUTH MELBOURNE,"3205"
15582,"0bc0a2ad","0188155d",Snacks,-37.83554784,144.96805093,POINT (144.96805093 -37.83554784),225,SOUTH MELBOURNE,"3205"
19968,"9eb2ebf0",b45ff465,Beverages,-37.79614884,144.97122094,POINT (144.97122094 -37.79614884),18,CARLTON,"3053"
926,"58d20748",a6b39a19,Snacks,-37.79569944,144.96709980,POINT (144.9670998 -37.79569944),504,CARLTON,"3053"
2161,"99ab7fd4",aceb7b57,Snacks,-37.81381483,144.94329730,POINT (144.9432973 -37.81381483),709,DOCKLANDS,"3008"
8946,"5e895b31","1aba123c",Indian,-37.83979314,144.98538934,POINT (144.98538934 -37.83979314),167,SOUTH YARRA,"3141"
5834,"90bd1ab6","",Chinese,-37.83960457,144.98542857,POINT (144.98542857 -37.83960457),924,SOUTH YARRA,"3141"
19394,"84bb2292",e14b373f,Desserts,-37.83983584,144.93535594,POINT (144.93535594 -37.83983584),338,PORT MELBOURNE,"3207"
6114,"718e3fc9","",Indian,-37.83359963,144.96637792,POINT (144.96637792 -37.83359963),34,SOUTH MELBOURNE,"3205"
14030,c0f2f18b,"4f18a361",International,-37.83288673,144.96893131,POINT (144.96893131 -37.83288673),888,SOUTH MELBOURNE,"3205"
14240,b744c894,"96c3b938",Japanese,-37.83686284,144.98218493,POINT (144.98218493 -37.83686284),933,SOUTH YARRA,"3141"
20437,ccee5000,"",Japanese,-37.83561484,144.98243493,POINT (144.98243493 -37.83561484),211,SOUTH YARRA,"3141"
4714,"90e328de","",Korean,-37.83508484,144.98255093,POINT (144.98255093 -37.83508484),108,SOUTH YARRA,"3141"
19223,"7d54ed3f","",Snacks,-37.79000772,144.93482078,POINT (144.93482078 -37.79000772),890,KENSINGTON,"3031"
18230,"96658a4e","",Beverages,-37.84265564,144.98467507,POINT (144.98467507 -37.84265564),950,SOUTH YARRA,"3141"
9314,d699367b,"",Indian,-37.81166427,144.93629809,POINT (144.93629809 -37.81166427),427,DOCKLANDS,"3008"
4657,ffbae5cd,"",Indian,-37.79550887,144.94310930,POINT (144.9431093 -37.79550887),896,NORTH MELBOURNE,"3051"
9177,bf9ea4f1,"",Indian,-37.80571539,144.95638698,POINT (144.95638698 -37.80571539),279,NORTH MELBOURNE,"3051"
1183,"8d59dbbf","4f547c83",Western,-37.80539073,144.95637321,POINT (144.95637321 -37.80539073),68,NORTH MELBOURNE,"3051"
1017,e8b1897f,"",Indian,-37.80522684,144.95576394,POINT (144.95576394 -37.80522684),832,NORTH MELBOURNE,"3051"
4123,"84f690eb","",Western,-37.80476384,144.95650894,POINT (144.95650894 -37.80476384),586,NORTH MELBOURNE,"3051"
21112,"8c4218ae","626a4ef7",Southeast Asian,-37.80270984,144.96757694,POINT (144.96757694 -37.80270984),118,CARLTON,"3053"
18688,dee4f4d6,"",Western,-37.80265784,144.96718094,POINT (144.96718094 -37.80265784),274,CARLTON,"3053"
2855,c7d52667,"16e9c214",Japanese,-37.79231261,144.92239853,POINT (144.92239853 -37.79231261),798,KENSINGTON,"3031"
4384,"85897b0d","4b3dd1e4",Indian,-37.85089484,144.99041993,POINT (144.99041993 -37.85089484),374,PRAHRAN,"3181"
10225,"9e579d6a",d61f6e53,Indian,-37.83499946,144.96038048,POINT (144.96038048 -37.83499946),315,SOUTH MELBOURNE,"3205"
21779,"6363ae37","",Western,-37.85045684,144.98715593,POINT (144.98715593 -37.85045684),107,PRAHRAN,"3181"
10432,"167e717a","46b646d4",Healthy,-37.84924284,144.98733593,POINT (144.98733593 -37.84924284),41,PRAHRAN,"3181"
22108,"3b08c56b","",Japanese,-37.84902484,144.98772893,POINT (144.98772893 -37.84902484),365,PRAHRAN,"3181"
322,"2f2dafc3",fd7385b6,Western,-37.84729455,144.98766291,POINT (144.98766291 -37.84729455),892,PRAHRAN,"3181"
5428,"8399cf9c","",Snacks,-37.82594803,144.92189587,POINT (144.92189587 -37.82594803),860,PORT MELBOURNE,"3207"
1385,cc386244,"",Southeast Asian,-37.84360184,144.99210393,POINT (144.99210393 -37.84360184),265,SOUTH YARRA,"3141"
15866,"109109e1",e91b71c3,Japanese,-37.84300984,144.99223293,POINT (144.99223293 -37.84300984),317,SOUTH YARRA,"3141"
2813,"554e92d9",b6620d07,Japanese,-37.84006084,144.94721194,POINT (144.94721194 -37.84006084),671,SOUTH MELBOURNE,"3205"
1493,"8c530562","",Indian,-37.78410483,144.92854995,POINT (144.92854995 -37.78410483),481,FLEMINGTON,"3031"
9081,"74743837","2e50ca91",Indian,-37.79587884,144.97179594,POINT (144.97179594 -37.79587884),94,CARLTON,"3053"
1193,"64e08170","",Vegetarian,-37.79583784,144.97146794,POINT (144.97146794 -37.79583784),619,CARLTON,"3053"
9723,"5dc98c37","",Snacks,-37.83249696,144.92048618,POINT (144.92048618 -37.83249696),137,PORT MELBOURNE,"3207"
8613,f06d88fa,"",Western,-37.83558784,144.93154194,POINT (144.93154194 -37.83558784),136,PORT MELBOURNE,"3207"
15105,"232b6913","",Indian,-37.83522984,144.93066494,POINT (144.93066494 -37.83522984),768,PORT MELBOURNE,"3207"
6223,a46c377a,"",Japanese,-37.84824084,144.99038693,POINT (144.99038693 -37.84824084),580,PRAHRAN,"3181"
20462,a205f0ff,"",Indian,-37.81593184,144.98552693,POINT (144.98552693 -37.81593184),133,EAST MELBOURNE,"3002"
4002,"9cc1fd3e","",Indian,-37.81486637,144.96598347,POINT (144.96598347 -37.81486637),484,MELBOURNE,"3000"
746,"41feb008","578140ae",Japanese,-37.78912684,144.93122594,POINT (144.93122594 -37.78912684),323,KENSINGTON,"3031"
2872,"10917955",a696f702,Indian,-37.85142384,145.00371093,POINT (145.00371093 -37.85142384),761,PRAHRAN,"3181"
22379,"157f0041","",Desserts,-37.84935584,144.99448193,POINT (144.99448193 -37.84935584),495,PRAHRAN,"3181"
1094,b6c2835c,"",Southeast Asian,-37.79283989,144.97196172,POINT (144.97196172 -37.79283989),758,CARLTON,"3053"
16336,"2baede65","",Indian,-37.79283224,144.97189123,POINT (144.97189123 -37.79283224),447,CARLTON,"3053"
18863,"2532ce09","",Indian,-37.78714384,144.93330194,POINT (144.93330194 -37.78714384),789,FLEMINGTON,"3031"
20143,fb5904a5,"",Indian,-37.78683284,144.93352694,POINT (144.93352694 -37.78683284),964,FLEMINGTON,"3031"
12362,aac826f5,"9b4a0bb0",Snacks,-37.84031884,144.93528494,POINT (144.93528494 -37.84031884),153,PORT MELBOURNE,"3207"
6852,cff036ed,"",Beverages,-37.83973168,144.93630724,POINT (144.93630724 -37.83973168),863,PORT MELBOURNE,"3207"
21656,ba3182e6,"",Western,-37.83764128,144.93805130,POINT (144.9380513 -37.83764128),522,PORT MELBOURNE,"3207"
10558,"27ac1861",ec3b749b,Indian,-37.83678084,144.93949594,POINT (144.93949594 -37.83678084),752,PORT MELBOURNE,"3207"
4666,c3f43892,b3280fcb,Beverages,-37.83647484,144.93999294,POINT (144.93999294 -37.83647484),614,PORT MELBOURNE,"3207"
10492,"1db419c3","",Western,-37.83548299,144.94224126,POINT (144.94224126 -37.83548299),156,PORT MELBOURNE,"3207"
5766,"1fc0f4e9",c7c98f91,Chinese,-37.83508084,144.94224794,POINT (144.94224794 -37.83508084),204,PORT MELBOURNE,"3207"
3836,d866a95f,"7375776a",Western,-37.83480984,144.94269894,POINT (144.94269894 -37.83480984),714,PORT MELBOURNE,"3207"
16631,"804540c6","",Snacks,-37.82983698,144.98788949,POINT (144.98788949 -37.82983698),535,MELBOURNE,"3000"
8134,"81672254","",Indian,-37.84125584,144.98612193,POINT (144.98612193 -37.84125584),469,SOUTH YARRA,"3141"
13393,abbddf35,afe2b3e5,Western,-37.83922378,144.98654186,POINT (144.98654186 -37.83922378),209,SOUTH YARRA,"3141"
17526,dd12ed84,"",Indian,-37.83682513,144.98703459,POINT (144.98703459 -37.83682513),186,SOUTH YARRA,"3141"
22004,c43f2bcf,"",Desserts,-37.83119166,144.98777080,POINT (144.9877708 -37.83119166),786,SOUTH YARRA,"3141"
1435,a2e967f8,e14b373f,Desserts,-37.80210084,144.94912594,POINT (144.94912594 -37.80210084),952,NORTH MELBOURNE,"3051"
7243,"0a7a699d","",Snacks,-37.81405333,144.96055382,POINT (144.96055382 -37.81405333),69,MELBOURNE,"3000"
4728,"1a6dbe6a","",Japanese,-37.84545763,144.97674016,POINT (144.97674016 -37.84545763),673,MELBOURNE,"3004"
9605,"8c5a6251","",Indian,-37.80520617,144.96705498,POINT (144.96705498 -37.80520617),185,CARLTON,"3053"
10734,"669d91a7","73d8be05",Japanese,-37.80486984,144.96432594,POINT (144.96432594 -37.80486984),499,CARLTON,"3053"
9413,eb61102b,"",Indian,-37.80474441,144.96678553,POINT (144.96678553 -37.80474441),599,CARLTON,"3053"
18460,"0cf88845",a7f5aa77,Western,-37.80445384,144.96423494,POINT (144.96423494 -37.80445384),308,CARLTON,"3053"
518,"7081959d","519a1642",Western,-37.80343334,144.95129874,POINT (144.95129874 -37.80343334),570,NORTH MELBOURNE,"3051"
18687,"3a9e0577","",Indian,-37.80312189,144.95234694,POINT (144.95234694 -37.80312189),431,NORTH MELBOURNE,"3051"
17683,a016d7cc,"",Indian,-37.80283884,144.94593694,POINT (144.94593694 -37.80283884),725,NORTH MELBOURNE,"3051"
14399,"56eefd56",d76a6bb5,Chinese,-37.80248484,144.94633294,POINT (144.94633294 -37.80248484),464,NORTH MELBOURNE,"3051"
2155,"7a278850",aceb7b57,Snacks,-37.82993322,144.94437886,POINT (144.94437886 -37.82993322),412,PORT MELBOURNE,"3207"
15396,"4d5e95cc","",Indian,-37.78819279,144.93187593,POINT (144.93187593 -37.78819279),687,FLEMINGTON,"3031"
17147,"30ec9562","",Indian,-37.78751383,144.92561595,POINT (144.92561595 -37.78751383),657,FLEMINGTON,"3031"
17727,"259d64a0","4b01ebbd",Beverages,-37.78734683,144.92394095,POINT (144.92394095 -37.78734683),249,FLEMINGTON,"3031"
18783,eaba2df0,"2d4e68a5",Beverages,-37.78718769,144.92240349,POINT (144.92240349 -37.78718769),618,FLEMINGTON,"3031"
18434,"625d2072",e0dc9b36,Indian,-37.78711083,144.92169795,POINT (144.92169795 -37.78711083),735,FLEMINGTON,"3031"
7222,"3828a7b6","4b01ebbd",Beverages,-37.78860663,144.93187646,POINT (144.93187646 -37.78860663),530,KENSINGTON,"3031"
8868,"7eb41670","23e7431b",Western,-37.78843184,144.93017795,POINT (144.93017795 -37.78843184),141,KENSINGTON,"3031"
16932,fab97350,"",Indian,-37.78810783,144.92716195,POINT (144.92716195 -37.78810783),420,KENSINGTON,"3031"
5840,"16c27c66",dd03dffb,Indian,-37.78942484,144.94055194,POINT (144.94055194 -37.78942484),917,NORTH MELBOURNE,"3051"
22450,b692ee0a,"4fc15949",Snacks,-37.83443384,144.94542494,POINT (144.94542494 -37.83443384),422,PORT MELBOURNE,"3207"
529,"412acc4b","",Western,-37.83358209,144.94461929,POINT (144.94461929 -37.83358209),490,PORT MELBOURNE,"3207"
9592,"2387aa37","519a1642",Western,-37.83809168,144.96080731,POINT (144.96080731 -37.83809168),364,SOUTH MELBOURNE,"3205"
3989,b9bc70a0,"",Indian,-37.83745384,144.96309037,POINT (144.96309037 -37.83745384),931,SOUTH MELBOURNE,"3205"
13644,"96bc2520",de97a266,Snacks,-37.83684184,144.96314793,POINT (144.96314793 -37.83684184),64,SOUTH MELBOURNE,"3205"
8765,b3cf4abb,"",Western,-37.83987484,144.98703393,POINT (144.98703393 -37.83987484),330,SOUTH YARRA,"3141"
17511,b9114b99,"",Indian,-37.81388984,144.96214803,POINT (144.96214803 -37.81388984),32,MELBOURNE,"3000"
21159,"16b75746",e5f04b9f,Western,-37.79289884,144.93102994,POINT (144.93102994 -37.79289884),366,KENSINGTON,"3031"
8073,"83b8b978","4aa6a2ee",Indian,-37.79181284,144.93164094,POINT (144.93164094 -37.79181284),840,KENSINGTON,"3031"
18063,e93db719,"0c3fe6a3",Indian,-37.79153022,144.93102167,POINT (144.93102167 -37.79153022),723,KENSINGTON,"3031"
18892,"5c1ce5fe",a6dcdf34,Beverages,-37.79866024,144.97005090,POINT (144.9700509 -37.79866024),350,CARLTON,"3053"
12873,"663be816","",Indian,-37.79682784,144.97035094,POINT (144.97035094 -37.79682784),370,CARLTON,"3053"
18547,d2f246ee,"",Indian,-37.79522884,144.97116694,POINT (144.97116694 -37.79522884),25,CARLTON,"3053"
443,"87740ce0","",Japanese,-37.79390784,144.97138394,POINT (144.97138394 -37.79390784),646,CARLTON,"3053"
11827,"55d1e4ec","",Vegetarian,-37.79714304,144.93770765,POINT (144.93770765 -37.79714304),234,NORTH MELBOURNE,"3051"
21299,f1d75ccc,"6a780d3d",Indian,-37.82074071,144.96330013,POINT (144.96330013 -37.82074071),592,SOUTHBANK,"3006"
5654,"4925978a","",Indian,-37.83199169,144.92034245,POINT (144.92034245 -37.83199169),590,PORT MELBOURNE,"3207"
16660,"9b028962",b4960dcb,Indian,-37.83133152,144.92212694,POINT (144.92212694 -37.83133152),276,PORT MELBOURNE,"3207"
10060,"26fd8ceb","",Indian,-37.83072693,144.92237683,POINT (144.92237683 -37.83072693),755,PORT MELBOURNE,"3207"
8452,"65032447","",Japanese,-37.83708684,145.00045093,POINT (145.00045093 -37.83708684),77,SOUTH YARRA,"3141"
10191,efba1bb6,"2e50ca91",Indian,-37.83689884,145.00028493,POINT (145.00028493 -37.83689884),192,SOUTH YARRA,"3141"
8583,"99bf9db4","",Indian,-37.83486227,145.00022906,POINT (145.00022906 -37.83486227),804,SOUTH YARRA,"3141"
3575,a46ab637,"",Snacks,-37.80961222,144.94572722,POINT (144.94572722 -37.80961222),231,WEST MELBOURNE,"3003"
18435,c030a3b3,"",Western,-37.80802770,144.94788382,POINT (144.94788382 -37.8080277),355,WEST MELBOURNE,"3003"
19301,"4b60f299","",Desserts,-37.83742183,144.92514994,POINT (144.92514994 -37.83742183),776,PORT MELBOURNE,"3207"
9376,"6963b74b","",Southeast Asian,-37.83027860,144.95873195,POINT (144.95873195 -37.8302786),698,SOUTH MELBOURNE,"3205"
10990,"455e041c","",Indian,-37.83593684,144.93709894,POINT (144.93709894 -37.83593684),595,PORT MELBOURNE,"3207"
17082,"1ab30ad0","",Snacks,-37.83577089,144.93731142,POINT (144.93731142 -37.83577089),60,PORT MELBOURNE,"3207"
14033,e30dee9b,"",Indian,-37.83564192,144.93690570,POINT (144.9369057 -37.83564192),221,PORT MELBOURNE,"3207"
6583,cbffb1f4,"",Japanese,-37.83413638,144.94004046,POINT (144.94004046 -37.83413638),907,PORT MELBOURNE,"3207"
1082,b08c9b37,"",Japanese,-37.83256616,144.94195406,POINT (144.94195406 -37.83256616),345,PORT MELBOURNE,"3207"
1768,"4d0eee7e","",Desserts,-37.83210784,144.94331894,POINT (144.94331894 -37.83210784),884,PORT MELBOURNE,"3207"
22710,"94453f7d","",Snacks,-37.80763241,144.95225842,POINT (144.95225842 -37.80763241),114,WEST MELBOURNE,"3003"
39,"679f4b9d","",Snacks,-37.79292041,144.91737525,POINT (144.91737525 -37.79292041),409,KENSINGTON,"3031"
4402,"79fa8862","69fcb4d3",Beverages,-37.84459684,144.94331894,POINT (144.94331894 -37.84459684),957,PORT MELBOURNE,"3207"
15469,e6b4e437,"2e6ad203",Beverages,-37.84429405,144.94368718,POINT (144.94368718 -37.84429405),913,PORT MELBOURNE,"3207"
16969,"63f2500e","",Snacks,-37.84263484,144.94078794,POINT (144.94078794 -37.84263484),926,PORT MELBOURNE,"3207"
12371,"258f6fed","3823147c",Indian,-37.84189384,144.93862694,POINT (144.93862694 -37.84189384),959,PORT MELBOURNE,"3207"
3353,"24141e2e","9f52af27",Beverages,-37.84184684,144.93853694,POINT (144.93853694 -37.84184684),659,PORT MELBOURNE,"3207"
10832,"9757eefa","8dc94713",Beverages,-37.84029072,144.93677954,POINT (144.93677954 -37.84029072),127,PORT MELBOURNE,"3207"
9552,"65439315","5d727888",Indian,-37.79538184,144.95764794,POINT (144.95764794 -37.79538184),823,PARKVILLE,"3052"
6354,d907a0ed,"4b01ebbd",Beverages,-37.79527480,144.95766277,POINT (144.95766277 -37.7952748),733,PARKVILLE,"3052"
17485,"8f4e9f41","",Indian,-37.79329649,144.95791030,POINT (144.9579103 -37.79329649),777,PARKVILLE,"3052"
22930,a2371f46,"5591a964",Japanese,-37.77928584,144.95963494,POINT (144.95963494 -37.77928584),88,PARKVILLE,"3052"
21226,"85bd1051","",Indian,-37.81031014,144.96724440,POINT (144.9672444 -37.81031014),105,MELBOURNE,"3000"
6333,"34bcf1c4",e3782312,Indian,-37.85403884,145.00328793,POINT (145.00328793 -37.85403884),12,PRAHRAN,"3181"
6686,"5ed1208d","",Indian,-37.82670398,144.90632227,POINT (144.90632227 -37.82670398),649,PORT MELBOURNE,"3207"
6910,"26cf4a6c","",Snacks,-37.82671784,144.92126489,POINT (144.92126489 -37.82671784),421,PORT MELBOURNE,"3207"
16005,"323b8f4f","",Chinese,-37.82339390,144.92115013,POINT (144.92115013 -37.8233939),569,PORT MELBOURNE,"3207"
15362,c01fb0f3,"",Snacks,-37.82324774,144.92163916,POINT (144.92163916 -37.82324774),816,PORT MELBOURNE,"3207"
4716,"3d78f651","",Indian,-37.79596663,144.92164166,POINT (144.92164166 -37.79596663),149,KENSINGTON,"3031"
16736,fae01816,"",Indian,-37.83623944,144.96790754,POINT (144.96790754 -37.83623944),749,SOUTH MELBOURNE,"3205"
9655,"6a3ac640","",Beverages,-37.83859583,144.91712894,POINT (144.91712894 -37.83859583),438,PORT MELBOURNE,"3207"
15453,"47e17046","",Indian,-37.80137114,144.94884744,POINT (144.94884744 -37.80137114),161,NORTH MELBOURNE,"3051"
16957,ce20effd,"9f52af27",Beverages,-37.80136281,144.94877019,POINT (144.94877019 -37.80136281),762,NORTH MELBOURNE,"3051"
2015,e2e4fafc,"8dc94713",Beverages,-37.80135318,144.94891448,POINT (144.94891448 -37.80135318),198,NORTH MELBOURNE,"3051"
18882,"3279d614","",Western,-37.79253149,144.92151488,POINT (144.92151488 -37.79253149),941,KENSINGTON,"3031"
4687,fdec444f,"",Healthy,-37.78611284,144.93305794,POINT (144.93305794 -37.78611284),808,FLEMINGTON,"3031"
18345,"2b5c2eb1","",Healthy,-37.78433284,144.93434594,POINT (144.93434594 -37.78433284),373,FLEMINGTON,"3031"
18352,e1f6080d,"",Indian,-37.82276296,144.95226490,POINT (144.9522649 -37.82276296),463,DOCKLANDS,"3008"
12493,"7ef9e27b","",Japanese,-37.81588783,144.98766393,POINT (144.98766393 -37.81588783),494,EAST MELBOURNE,"3002"
21988,f8f90680,"",Desserts,-37.79170584,144.93337894,POINT (144.93337894 -37.79170584),196,KENSINGTON,"3031"
430,"7ce44139","",Snacks,-37.79131584,144.93276594,POINT (144.93276594 -37.79131584),523,KENSINGTON,"3031"
16596,"4c3af650","",Snacks,-37.83605584,144.95165194,POINT (144.95165194 -37.83605584),468,SOUTH MELBOURNE,"3205"
1474,c1c8ec08,"",Snacks,-37.79110217,144.92112505,POINT (144.92112505 -37.79110217),320,KENSINGTON,"3031"
11792,"57b9216f","9ec61b23",Indian,-37.79823184,144.93089194,POINT (144.93089194 -37.79823184),754,KENSINGTON,"3031"
19617,a2429d0a,"",Japanese,-37.79775084,144.93073494,POINT (144.93073494 -37.79775084),760,KENSINGTON,"3031"
10745,"103abc5c",b45ff465,Beverages,-37.83377971,144.93539902,POINT (144.93539902 -37.83377971),549,PORT MELBOURNE,"3207"
19478,be7b97e0,"0caffc2b",Japanese,-37.82308474,144.93981067,POINT (144.93981067 -37.82308474),455,DOCKLANDS,"3008"
19282,"9b00ea23","666a0df1",Indian,-37.82054246,144.95512646,POINT (144.95512646 -37.82054246),157,MELBOURNE,"3000"
4839,eae78581,a7f5aa77,Western,-37.81133355,144.95087767,POINT (144.95087767 -37.81133355),229,WEST MELBOURNE,"3003"
22166,d0f3f90c,c9da7ce7,Japanese,-37.80670121,144.94498226,POINT (144.94498226 -37.80670121),428,WEST MELBOURNE,"3003"
10751,b113cd62,c06f2f01,Western,-37.80624884,144.94562694,POINT (144.94562694 -37.80624884),346,WEST MELBOURNE,"3003"
19519,"356f1fbf","",Indian,-37.80612684,144.94534594,POINT (144.94534594 -37.80612684),882,WEST MELBOURNE,"3003"
3660,ecf90cc5,"83e10cca",Snacks,-37.80580649,144.94350429,POINT (144.94350429 -37.80580649),527,WEST MELBOURNE,"3003"
3888,ad166968,"",Indian,-37.83654010,144.94577570,POINT (144.9457757 -37.8365401),179,PORT MELBOURNE,"3207"
9871,"2bfba01d",f6040d43,Snacks,-37.85078084,145.00513793,POINT (145.00513793 -37.85078084),531,PRAHRAN,"3181"
15880,"063b504a","6f4ac446",Snacks,-37.85042584,145.00440893,POINT (145.00440893 -37.85042584),70,PRAHRAN,"3181"
19656,de9bceb2,"4b01ebbd",Beverages,-37.81038184,144.94596694,POINT (144.94596694 -37.81038184),793,WEST MELBOURNE,"3003"
15976,d55f0483,c98086c8,Hong Kong Style,-37.81026032,144.94531886,POINT (144.94531886 -37.81026032),944,WEST MELBOURNE,"3003"
3640,"5a2ed342","",Indian,-37.80929969,144.94781123,POINT (144.94781123 -37.80929969),923,WEST MELBOURNE,"3003"
5719,"2f8bc20f","7f8a4431",Indian,-37.80921748,144.94789630,POINT (144.9478963 -37.80921748),953,WEST MELBOURNE,"3003"
21258,"38934f0d","",Snacks,-37.81282652,144.93821022,POINT (144.93821022 -37.81282652),467,DOCKLANDS,"3008"
10192,eed99c83,"1d01abb2",Snacks,-37.79562784,144.97449494,POINT (144.97449494 -37.79562784),389,CARLTON,"3053"
2236,d9609b86,"",Desserts,-37.79471731,144.97402964,POINT (144.97402964 -37.79471731),958,CARLTON,"3053"
15203,"6576abf3",ffdde20b,Indian,-37.83687984,144.93894794,POINT (144.93894794 -37.83687984),357,PORT MELBOURNE,"3207"
361,"59fdaf0e","80e5ab1d",Indian,-37.83607514,144.94025715,POINT (144.94025715 -37.83607514),628,PORT MELBOURNE,"3207"
6762,f7afd962,"",Desserts,-37.83287784,144.94556594,POINT (144.94556594 -37.83287784),259,PORT MELBOURNE,"3207"
13629,"5dd1ea6d","",Korean,-37.80324884,144.94266729,POINT (144.94266729 -37.80324884),954,NORTH MELBOURNE,"3051"
11111,"144c1d48",e14b373f,Desserts,-37.85927484,145.00862592,POINT (145.00862592 -37.85927484),650,PRAHRAN,"3181"
17888,"0370e0c6","",Indian,-37.83474584,144.96806193,POINT (144.96806193 -37.83474584),508,SOUTH MELBOURNE,"3205"
6124,"25a12c7e","06bd5916",Indian,-37.85035584,144.99193593,POINT (144.99193593 -37.85035584),478,PRAHRAN,"3181"
17385,"0b732049","",Beverages,-37.85001627,144.99161592,POINT (144.99161592 -37.85001627),640,PRAHRAN,"3181"
23059,"3698f289","",Western,-37.83788341,144.97570493,POINT (144.97570493 -37.83788341),144,MELBOURNE,"3004"
5511,bae3a939,"52669e23",Indian,-37.82590482,144.97015085,POINT (144.97015085 -37.82590482),306,SOUTHBANK,"3006"
21954,"000ac61d","8dc94713",Beverages,-37.82258775,144.96934171,POINT (144.96934171 -37.82258775),846,SOUTHBANK,"3006"
7085,feedeb76,"06bd5916",Indian,-37.79447683,144.91713595,POINT (144.91713595 -37.79447683),842,KENSINGTON,"3031"
10690,d9d6b2d2,"",Indian,-37.79368858,144.91700936,POINT (144.91700936 -37.79368858),809,KENSINGTON,"3031"
19913,"166dbbba","",Beverages,-37.79368840,144.91729481,POINT (144.91729481 -37.7936884),691,KENSINGTON,"3031"
13399,"4efefa1a","36fbb1a7",Beverages,-37.79288908,144.91755184,POINT (144.91755184 -37.79288908),482,KENSINGTON,"3031"
15242,ea569ea1,"",Snacks,-37.79287883,144.91780495,POINT (144.91780495 -37.79287883),134,KENSINGTON,"3031"
8062,"8f157e75",ab87ae8b,Western,-37.79251992,144.91793605,POINT (144.91793605 -37.79251992),269,KENSINGTON,"3031"
20223,"62d43a5c",a6dcdf34,Beverages,-37.79243988,144.92042652,POINT (144.92042652 -37.79243988),348,KENSINGTON,"3031"
20734,c54552e9,"",Japanese,-37.79220406,144.92071535,POINT (144.92071535 -37.79220406),579,KENSINGTON,"3031"
5188,"918f5099",ec3b749b,Indian,-37.79204883,144.92140595,POINT (144.92140595 -37.79204883),772,KENSINGTON,"3031"
11139,c33fcf0d,"",Japanese,-37.79115852,144.92289914,POINT (144.92289914 -37.79115852),911,KENSINGTON,"3031"
9581,"4e76a23b","36fbb1a7",Beverages,-37.84155311,144.93592688,POINT (144.93592688 -37.84155311),87,PORT MELBOURNE,"3207"
13244,"5a65cfc1",a23973b3,Indian,-37.83706884,144.94045394,POINT (144.94045394 -37.83706884),14,PORT MELBOURNE,"3207"
6530,b54f79d0,"9f52af27",Beverages,-37.83666008,144.94078568,POINT (144.94078568 -37.83666008),23,PORT MELBOURNE,"3207"
1693,d1b09409,"",Indian,-37.79670084,144.95624894,POINT (144.95624894 -37.79670084),212,PARKVILLE,"3052"
7249,"03a8d2a1","",Japanese,-37.80271321,144.94903279,POINT (144.94903279 -37.80271321),111,NORTH MELBOURNE,"3051"
4162,c3950feb,"645bed93",Snacks,-37.77666929,144.94026683,POINT (144.94026683 -37.77666929),2,PARKVILLE,"3052"
6902,"1133ed0d","",Indian,-37.77619569,144.94069363,POINT (144.94069363 -37.77619569),294,PARKVILLE,"3052"
19136,bfe06907,"",Indian,-37.79374295,144.93532734,POINT (144.93532734 -37.79374295),413,KENSINGTON,"3031"
9387,b7607b74,"0d8e81d9",Indian,-37.79075287,144.93507719,POINT (144.93507719 -37.79075287),613,KENSINGTON,"3031"
11897,"94a99332","347a72c5",Indian,-37.79067134,144.93515020,POINT (144.9351502 -37.79067134),902,KENSINGTON,"3031"
8311,"4546e587","",Snacks,-37.82958336,144.94367621,POINT (144.94367621 -37.82958336),303,PORT MELBOURNE,"3207"
13431,c1bb2b6d,"9f52af27",Beverages,-37.84644784,144.99831093,POINT (144.99831093 -37.84644784),704,SOUTH YARRA,"3141"
900,a0ca357f,"80924b01",Indian,-37.84624984,144.99834993,POINT (144.99834993 -37.84624984),701,SOUTH YARRA,"3141"
16195,"4d4388fc","",Desserts,-37.84211800,144.99858767,POINT (144.99858767 -37.842118),610,SOUTH YARRA,"3141"
15912,"9774303d","",Snacks,-37.84137979,144.99863034,POINT (144.99863034 -37.84137979),75,SOUTH YARRA,"3141"
18968,"8b2d2ac2",ec929284,Beverages,-37.84127208,144.99865598,POINT (144.99865598 -37.84127208),830,SOUTH YARRA,"3141"
19721,"4b38372f","",Korean,-37.84125909,144.99895179,POINT (144.99895179 -37.84125909),38,SOUTH YARRA,"3141"
1133,"32112531","4ac2caae",Vegetarian,-37.84111033,144.99868308,POINT (144.99868308 -37.84111033),670,SOUTH YARRA,"3141"
18361,"47a01339","",Healthy,-37.79256297,144.94120683,POINT (144.94120683 -37.79256297),561,NORTH MELBOURNE,"3051"
14850,"2255b645","8dc94713",Beverages,-37.79584584,144.96503494,POINT (144.96503494 -37.79584584),967,CARLTON,"3053"
2387,bb978ccf,"2f1256c0",Healthy,-37.81837638,144.96827914,POINT (144.96827914 -37.81837638),637,MELBOURNE,"3000"
13422,"6318eec2","",Snacks,-37.81379323,144.96604967,POINT (144.96604967 -37.81379323),337,MELBOURNE,"3000"
15017,b72ee9d6,b3280fcb,Beverages,-37.81374100,144.96602441,POINT (144.96602441 -37.813741),454,MELBOURNE,"3000"
15753,e94ad8c1,"",Indian,-37.80862952,144.96366534,POINT (144.96366534 -37.80862952),715,MELBOURNE,"3000"
10688,c21d002c,"5b3f030c",Southeast Asian,-37.81175639,144.96540999,POINT (144.96540999 -37.81175639),17,MELBOURNE,"3000"
1352,b74fa2e0,"",Beverages,-37.79587583,144.91822995,POINT (144.91822995 -37.79587583),301,KENSINGTON,"3031"
12765,"571861f4","072809e9",Beverages,-37.83904483,144.91654794,POINT (144.91654794 -37.83904483),974,PORT MELBOURNE,"3207"
4730,"4cc37f25","",Japanese,-37.83884183,144.92241694,POINT (144.92241694 -37.83884183),267,PORT MELBOURNE,"3207"
7326,"484a1ff0","",Indian,-37.79477968,144.91990745,POINT (144.91990745 -37.79477968),339,KENSINGTON,"3031"
7630,"145e8f0e","",Snacks,-37.83897384,144.92877294,POINT (144.92877294 -37.83897384),59,PORT MELBOURNE,"3207"
9580,"90963d36","",Indian,-37.79472611,144.92524400,POINT (144.925244 -37.79472611),113,KENSINGTON,"3031"
13386,f007203a,"51e738ed",Indian,-37.79449912,144.92565916,POINT (144.92565916 -37.79449912),807,KENSINGTON,"3031"
17944,"563463cd","",Indian,-37.79427874,144.92542685,POINT (144.92542685 -37.79427874),543,KENSINGTON,"3031"
847,"8ac45ece","",Snacks,-37.79405273,144.92640981,POINT (144.92640981 -37.79405273),394,KENSINGTON,"3031"
7892,a1e85a74,"",Healthy,-37.83689184,144.96604793,POINT (144.96604793 -37.83689184),552,SOUTH MELBOURNE,"3205"
9484,"6a010c8b","",Vegetarian,-37.83943914,144.99837136,POINT (144.99837136 -37.83943914),854,SOUTH YARRA,"3141"
13282,"577bc33a","",Indian,-37.83892784,144.99810393,POINT (144.99810393 -37.83892784),42,SOUTH YARRA,"3141"
15948,"9bff5994",c9fd5bbf,Western,-37.83834274,144.99822136,POINT (144.99822136 -37.83834274),321,SOUTH YARRA,"3141"
16735,"6ab9448a","",Japanese,-37.82877959,144.94242839,POINT (144.94242839 -37.82877959),277,PORT MELBOURNE,"3207"
720,ed97152e,"",Indian,-37.83952221,144.99733382,POINT (144.99733382 -37.83952221),750,SOUTH YARRA,"3141"
6708,cdd0e6c3,"",Indian,-37.83880804,144.99155235,POINT (144.99155235 -37.83880804),76,SOUTH YARRA,"3141"
6346,bfbbd7a7,"",Japanese,-37.83819841,144.98698950,POINT (144.9869895 -37.83819841),855,SOUTH YARRA,"3141"
15336,eb2f3d80,"",Japanese,-37.83249184,144.96385093,POINT (144.96385093 -37.83249184),326,SOUTH MELBOURNE,"3205"
10281,e9474e50,"8dc94713",Beverages,-37.83797384,144.94893994,POINT (144.94893994 -37.83797384),915,SOUTH MELBOURNE,"3205"
5951,f08601ac,"",Indian,-37.85182424,145.00155953,POINT (145.00155953 -37.85182424),943,PRAHRAN,"3181"
13808,"5b405609","3ae08d0c",Snacks,-37.85130684,145.00163493,POINT (145.00163493 -37.85130684),406,PRAHRAN,"3181"
11231,"327cea09","",Western,-37.83635484,144.93112194,POINT (144.93112194 -37.83635484),771,PORT MELBOURNE,"3207"
17409,df72ca0c,"7c8c4f32",Snacks,-37.84562284,144.98797993,POINT (144.98797993 -37.84562284),653,SOUTH YARRA,"3141"
274,"50147a1c","82d5177a",Indian,-37.84510884,144.98809093,POINT (144.98809093 -37.84510884),662,SOUTH YARRA,"3141"
20392,dd8e6e74,"90083360",Japanese,-37.79944731,144.96966424,POINT (144.96966424 -37.79944731),945,CARLTON,"3053"
10465,fe959513,"2e50ca91",Indian,-37.85801484,145.00871692,POINT (145.00871692 -37.85801484),275,PRAHRAN,"3181"
19070,e40784ef,"4bfa0362",Western,-37.85789984,145.00779892,POINT (145.00779892 -37.85789984),115,PRAHRAN,"3181"
13893,ba108999,"92005371",Indian,-37.79967862,144.95364702,POINT (144.95364702 -37.79967862),102,NORTH MELBOURNE,"3051"
8755,"1a782658","5a3894f2",Western,-37.78793784,144.93331394,POINT (144.93331394 -37.78793784),865,FLEMINGTON,"3031"
1401,d93ddd0d,"",Desserts,-37.80515184,144.95149494,POINT (144.95149494 -37.80515184),591,NORTH MELBOURNE,"3051"
3959,de509f30,"5a64ad7b",Western,-37.80514084,144.95133694,POINT (144.95133694 -37.80514084),588,NORTH MELBOURNE,"3051"
4138,fdb776ec,"",Japanese,-37.80554384,144.95121194,POINT (144.95121194 -37.80554384),930,WEST MELBOURNE,"3003"
20996,abbbeaf9,"8caa989a",Indian,-37.80536284,144.94963794,POINT (144.94963794 -37.80536284),747,WEST MELBOURNE,"3003"
3554,"4523e920","",Western,-37.80508586,144.94704416,POINT (144.94704416 -37.80508586),242,WEST MELBOURNE,"3003"
19019,"2d6941ac","",Western,-37.79950185,144.95345787,POINT (144.95345787 -37.79950185),254,NORTH MELBOURNE,"3051"
16315,"7d3b7ab2","52669e23",Indian,-37.79727401,144.92081024,POINT (144.92081024 -37.79727401),553,KENSINGTON,"3031"
4525,"5011caf0","347a72c5",Indian,-37.83703419,144.98478263,POINT (144.98478263 -37.83703419),122,SOUTH YARRA,"3141"
4689,d3a89555,"5f9d20c9",Beverages,-37.83630518,144.98557458,POINT (144.98557458 -37.83630518),937,SOUTH YARRA,"3141"
8734,b9c72f93,"8795da35",Indian,-37.83337615,144.98588130,POINT (144.9858813 -37.83337615),324,SOUTH YARRA,"3141"
9867,f1cc4336,"9c65d566",Beverages,-37.78392576,144.92961112,POINT (144.92961112 -37.78392576),47,FLEMINGTON,"3031"
21831,beccec1b,"8f66557a",Western,-37.83337784,144.95724794,POINT (144.95724794 -37.83337784),707,SOUTH MELBOURNE,"3205"
15188,a140b186,"1046f8f9",Beverages,-37.81736234,144.98099801,POINT (144.98099801 -37.81736234),909,EAST MELBOURNE,"3002"
23026,"6cae5076","8dc94713",Beverages,-37.81639544,144.98730935,POINT (144.98730935 -37.81639544),578,EAST MELBOURNE,"3002"
4350,"647d8a60","",Snacks,-37.81627584,144.98616493,POINT (144.98616493 -37.81627584),918,EAST MELBOURNE,"3002"
12176,fba47278,"",Indian,-37.78697484,144.93186494,POINT (144.93186494 -37.78697484),900,FLEMINGTON,"3031"
6779,"68c6d264","",Western,-37.78463375,144.93181849,POINT (144.93181849 -37.78463375),533,FLEMINGTON,"3031"
1267,"4bee0ca0","",Indian,-37.85046584,145.00518093,POINT (145.00518093 -37.85046584),743,PRAHRAN,"3181"
4827,"4adeb884","",Indian,-37.84878484,145.00541893,POINT (145.00541893 -37.84878484),540,PRAHRAN,"3181"
1713,a7795906,"1aba123c",Indian,-37.81495629,144.95816777,POINT (144.95816777 -37.81495629),511,MELBOURNE,"3000"
11241,"5e5e01d4",a7f5aa77,Western,-37.80980122,144.95580450,POINT (144.9558045 -37.80980122),86,MELBOURNE,"3000"
18800,"7495aea6","",Japanese,-37.85599284,145.00210993,POINT (145.00210993 -37.85599284),585,PRAHRAN,"3181"
14070,"560ce14d","",Chinese,-37.85440514,145.00273072,POINT (145.00273072 -37.85440514),686,PRAHRAN,"3181"
21813,a382d294,a6dcdf34,Beverages,-37.85253387,145.00272710,POINT (145.0027271 -37.85253387),351,PRAHRAN,"3181"
19676,f09f518b,"",Japanese,-37.85177184,145.00242893,POINT (145.00242893 -37.85177184),11,PRAHRAN,"3181"
8824,"11cb2972","",Snacks,-37.84377209,145.00386771,POINT (145.00386771 -37.84377209),688,SOUTH YARRA,"3141"
667,"737abfe1","",Snacks,-37.83639217,144.91660778,POINT (144.91660778 -37.83639217),232,PORT MELBOURNE,"3207"
650,"4e34167b","",Indian,-37.83301447,144.92574530,POINT (144.9257453 -37.83301447),827,PORT MELBOURNE,"3207"
3665,a45da1e7,e14b373f,Desserts,-37.83241905,144.93700420,POINT (144.9370042 -37.83241905),638,PORT MELBOURNE,"3207"
6378,"43942324",db5087fb,Indian,-37.84434484,144.99921993,POINT (144.99921993 -37.84434484),19,SOUTH YARRA,"3141"
7753,"85f655ee","",Indian,-37.84395184,144.99783293,POINT (144.99783293 -37.84395184),120,SOUTH YARRA,"3141"
15925,"82488477","",Western,-37.78460283,144.91999395,POINT (144.91999395 -37.78460283),721,FLEMINGTON,"3031"
4270,"95909839","",Japanese,-37.81008248,144.94906350,POINT (144.9490635 -37.81008248),30,WEST MELBOURNE,"3003"
15713,ea62eb97,f4603a70,Japanese,-37.82854313,144.94196996,POINT (144.94196996 -37.82854313),668,PORT MELBOURNE,"3207"
11012,d4edd79d,"23cfdb2d",Beverages,-37.82843666,144.94210834,POINT (144.94210834 -37.82843666),245,PORT MELBOURNE,"3207"
12408,"6c32c405","",Desserts,-37.80002564,144.95417748,POINT (144.95417748 -37.80002564),145,NORTH MELBOURNE,"3051"
3907,"37b886d4","",Beverages,-37.85134784,145.00615693,POINT (145.00615693 -37.85134784),655,PRAHRAN,"3181"
16502,c5c57386,"",Japanese,-37.85129584,145.00573793,POINT (145.00573793 -37.85129584),429,PRAHRAN,"3181"
18373,"99ab3e45","23cfdb2d",Beverages,-37.85102084,145.00546093,POINT (145.00546093 -37.85102084),295,PRAHRAN,"3181"
22478,ba807dcb,"",Desserts,-37.85264984,145.01080292,POINT (145.01080292 -37.85264984),369,PRAHRAN,"3181"
1208,c23ca626,"",Beverages,-37.83128685,144.96031725,POINT (144.96031725 -37.83128685),767,SOUTH MELBOURNE,"3205"
4169,bb20fe67,"",Indian,-37.83096602,144.96065548,POINT (144.96065548 -37.83096602),414,SOUTH MELBOURNE,"3205"
13899,c47a3d78,"169e0833",Hong Kong Style,-37.85198984,144.99780893,POINT (144.99780893 -37.85198984),461,PRAHRAN,"3181"
19314,"98af0b41","347a72c5",Indian,-37.85147384,144.99818593,POINT (144.99818593 -37.85147384),676,PRAHRAN,"3181"
7010,e2ee84f1,"",Indian,-37.85107138,144.99826083,POINT (144.99826083 -37.85107138),769,PRAHRAN,"3181"
15145,bd28ac77,"9e250a9d",Beverages,-37.85086284,144.99828293,POINT (144.99828293 -37.85086284),39,PRAHRAN,"3181"
21760,"625d9171","",Korean,-37.85053884,144.99832493,POINT (144.99832493 -37.85053884),492,PRAHRAN,"3181"
13708,"9fb53554","",Healthy,-37.84967184,144.99820093,POINT (144.99820093 -37.84967184),150,PRAHRAN,"3181"
16684,"9153cecc","",Snacks,-37.84865584,144.99833093,POINT (144.99833093 -37.84865584),132,PRAHRAN,"3181"
7265,fc162e81,bf77fa50,Western,-37.83133285,144.95829354,POINT (144.95829354 -37.83133285),833,SOUTH MELBOURNE,"3205"
